{"type":"FeatureCollection","features":[{"type":"Feature","properties":{"name":"Access trail","source":"Strava GPX","length_m":4501},"geometry":{"type":"LineString","coordinates":[[30.142116,-1.951319],[30.142059,-1.951356],[30.142001,-1.951393],[30.141966,-1.951417],[30.141945,-1.951442],[30.141924,-1.951467],[30.141913,-1.951467],[30.141909,-1.951461],[30.141918,-1.951455],[30.141928,-1.951451],[30.141949,-1.951444],[30.141963,-1.951435],[30.141969,-1.951427],[30.141968,-1.951422],[30.141972,-1.951416],[30.141981,-1.951408],[30.141984,-1.951404],[30.141989,-1.951408],[30.141994,-1.951414],[30.142005,-1.951411],[30.142028,-1.951412],[30.142049,-1.951419],[30.142065,-1.951419],[30.142075,-1.951414],[30.142091,-1.95141],[30.142098,-1.951408],[30.142103,-1.951411],[30.142122,-1.95141],[30.142127,-1.951407],[30.14214,-1.951404],[30.142171,-1.951395],[30.142188,-1.951396],[30.14221,-1.9514],[30.142213,-1.951393],[30.14222,-1.951391],[30.142233,-1.951388],[30.142248,-1.951376],[30.142253,-1.951362],[30.142263,-1.951349],[30.142276,-1.951339],[30.142283,-1.951337],[30.142293,-1.951322],[30.1423,-1.951314],[30.142302,-1.951306],[30.142305,-1.951288],[30.142311,-1.951274],[30.14232,-1.951258],[30.142322,-1.951246],[30.142332,-1.951236],[30.142327,-1.951221],[30.142319,-1.951219],[30.142304,-1.951204],[30.14229,-1.951184],[30.142276,-1.951174],[30.14226,-1.95115],[30.142249,-1.951127],[30.142243,-1.95112],[30.142234,-1.951107],[30.142234,-1.951101],[30.142226,-1.951082],[30.14222,-1.951075],[30.142215,-1.951066],[30.142211,-1.951059],[30.142196,-1.951051],[30.142188,-1.951042],[30.142174,-1.951046],[30.142175,-1.951049],[30.142169,-1.95105],[30.142157,-1.95105],[30.142152,-1.95105],[30.142131,-1.951055],[30.142109,-1.951062],[30.142092,-1.951066],[30.142081,-1.951073],[30.142076,-1.951072],[30.142064,-1.951063],[30.142047,-1.951069],[30.142038,-1.951061],[30.142026,-1.951051],[30.14201,-1.951047],[30.141995,-1.951044],[30.141985,-1.951042],[30.141982,-1.951042],[30.141977,-1.951042],[30.141957,-1.951049],[30.141944,-1.951051],[30.141935,-1.95105],[30.141919,-1.95105],[30.141911,-1.951048],[30.141909,-1.951043],[30.141911,-1.951034],[30.141911,-1.95102],[30.141907,-1.951017],[30.14191,-1.950985],[30.141917,-1.950964],[30.141924,-1.950947],[30.141933,-1.95093],[30.141936,-1.950916],[30.141934,-1.950907],[30.141931,-1.950898],[30.141929,-1.950876],[30.141931,-1.950856],[30.141928,-1.950844],[30.141932,-1.950824],[30.14193,-1.95081],[30.141926,-1.950809],[30.14191,-1.950807],[30.141894,-1.95081],[30.141888,-1.950803],[30.141886,-1.950797],[30.141883,-1.950785],[30.141893,-1.950771],[30.141897,-1.950764],[30.141889,-1.950751],[30.14189,-1.95073],[30.141896,-1.950707],[30.141904,-1.950686],[30.14191,-1.950666],[30.141908,-1.950657],[30.141911,-1.950646],[30.141913,-1.950632],[30.141914,-1.950628],[30.141916,-1.95063],[30.141918,-1.950626],[30.141921,-1.950622],[30.141932,-1.950628],[30.141947,-1.95063],[30.141955,-1.950636],[30.141966,-1.950644],[30.141983,-1.95065],[30.141994,-1.950657],[30.142001,-1.95066],[30.142006,-1.950653],[30.142023,-1.950654],[30.142036,-1.95065],[30.142048,-1.950649],[30.142054,-1.95065],[30.142055,-1.950661],[30.142054,-1.950673],[30.14206,-1.95068],[30.142074,-1.950692],[30.142085,-1.950705],[30.142097,-1.950723],[30.142101,-1.950733],[30.142106,-1.950748],[30.142114,-1.950761],[30.142121,-1.950778],[30.142124,-1.95079],[30.142126,-1.950799],[30.142135,-1.950808],[30.142139,-1.950814],[30.142145,-1.95081],[30.142165,-1.950801],[30.142183,-1.950795],[30.142199,-1.950786],[30.142216,-1.950779],[30.142227,-1.950775],[30.14224,-1.950773],[30.142258,-1.950776],[30.14228,-1.950773],[30.142292,-1.950775],[30.142303,-1.950778],[30.142313,-1.950784],[30.142328,-1.950786],[30.142338,-1.950784],[30.142335,-1.950798],[30.142335,-1.950809],[30.142342,-1.950808],[30.14235,-1.950819],[30.142361,-1.950829],[30.142379,-1.95084],[30.142396,-1.950851],[30.1424,-1.950846],[30.142399,-1.950845],[30.142396,-1.950837],[30.142397,-1.950843],[30.142395,-1.950841],[30.142389,-1.950846],[30.14239,-1.950859],[30.142413,-1.950884],[30.142426,-1.950906],[30.142427,-1.950922],[30.142425,-1.950938],[30.142425,-1.950945],[30.142437,-1.95095],[30.142441,-1.95096],[30.142446,-1.950971],[30.142453,-1.950977],[30.142465,-1.950986],[30.142472,-1.950992],[30.142488,-1.950987],[30.142502,-1.95099],[30.142511,-1.95099],[30.142517,-1.950983],[30.14253,-1.950976],[30.142544,-1.950973],[30.142553,-1.950974],[30.142566,-1.950983],[30.142583,-1.951015],[30.142559,-1.95104],[30.142534,-1.951131],[30.142517,-1.951167],[30.142528,-1.951156],[30.142521,-1.951163],[30.142517,-1.951173],[30.142509,-1.951194],[30.142502,-1.951213],[30.142495,-1.95122],[30.142498,-1.951218],[30.142512,-1.951222],[30.142528,-1.951209],[30.142542,-1.9512],[30.142566,-1.951197],[30.142589,-1.951183],[30.1426,-1.951176],[30.142611,-1.951162],[30.142628,-1.951161],[30.142653,-1.951159],[30.142674,-1.951149],[30.142708,-1.951138],[30.142726,-1.951143],[30.142739,-1.951149],[30.14274,-1.951158],[30.14274,-1.951175],[30.142743,-1.951175],[30.142745,-1.95118],[30.14275,-1.951176],[30.142753,-1.951184],[30.142755,-1.951188],[30.142768,-1.951187],[30.14277,-1.951183],[30.142776,-1.951184],[30.142784,-1.951177],[30.142792,-1.951171],[30.142807,-1.951166],[30.142824,-1.95116],[30.142845,-1.951151],[30.142856,-1.951151],[30.142871,-1.951155],[30.142874,-1.951164],[30.142871,-1.951167],[30.142871,-1.951172],[30.14288,-1.951172],[30.142894,-1.951176],[30.142907,-1.951174],[30.142919,-1.951177],[30.142936,-1.95118],[30.142953,-1.951184],[30.142961,-1.951186],[30.142975,-1.951186],[30.143,-1.951186],[30.143011,-1.95119],[30.143019,-1.951195],[30.143033,-1.951196],[30.143047,-1.951195],[30.143057,-1.951188],[30.143097,-1.95117],[30.143101,-1.951151],[30.14311,-1.951138],[30.143119,-1.951126],[30.143131,-1.951128],[30.143137,-1.951136],[30.14314,-1.951145],[30.143149,-1.95115],[30.143156,-1.951151],[30.143162,-1.951151],[30.143173,-1.951149],[30.143189,-1.951134],[30.14321,-1.951122],[30.143237,-1.951103],[30.14326,-1.951085],[30.143272,-1.951076],[30.143297,-1.951051],[30.14331,-1.95104],[30.143315,-1.951044],[30.143309,-1.951049],[30.143305,-1.951048],[30.143316,-1.95104],[30.143341,-1.951028],[30.143355,-1.951024],[30.14336,-1.951022],[30.143351,-1.951017],[30.143337,-1.95102],[30.143332,-1.95103],[30.143325,-1.95104],[30.143328,-1.951052],[30.143327,-1.951056],[30.143334,-1.95106],[30.143345,-1.951059],[30.14335,-1.951061],[30.143363,-1.951048],[30.143378,-1.951046],[30.143388,-1.951046],[30.143391,-1.951051],[30.143403,-1.951052],[30.143413,-1.951054],[30.143429,-1.951061],[30.14344,-1.951052],[30.143457,-1.951051],[30.143464,-1.95104],[30.143468,-1.951033],[30.14348,-1.951043],[30.143493,-1.951047],[30.143506,-1.951059],[30.143524,-1.951068],[30.14354,-1.951074],[30.143555,-1.951076],[30.143564,-1.951082],[30.143567,-1.951084],[30.143571,-1.951088],[30.143581,-1.951085],[30.143592,-1.951077],[30.143599,-1.951074],[30.143603,-1.951071],[30.143611,-1.951072],[30.14363,-1.951073],[30.143647,-1.951075],[30.143652,-1.951081],[30.143662,-1.951082],[30.143677,-1.95108],[30.143693,-1.951074],[30.143706,-1.951075],[30.143722,-1.951077],[30.143734,-1.951079],[30.143746,-1.951075],[30.143772,-1.951071],[30.143799,-1.951067],[30.143817,-1.951069],[30.143846,-1.951068],[30.14386,-1.951069],[30.143867,-1.951065],[30.143866,-1.95104],[30.14387,-1.951021],[30.143883,-1.951007],[30.143885,-1.950996],[30.143896,-1.950981],[30.143904,-1.950975],[30.143926,-1.950954],[30.143933,-1.950956],[30.143946,-1.950959],[30.143966,-1.950963],[30.143976,-1.950965],[30.143993,-1.950963],[30.143996,-1.950961],[30.144003,-1.950956],[30.144017,-1.950949],[30.144026,-1.950951],[30.144034,-1.950961],[30.144048,-1.950969],[30.144063,-1.950977],[30.144072,-1.950983],[30.14408,-1.950986],[30.144096,-1.950985],[30.144102,-1.950982],[30.144114,-1.950974],[30.144124,-1.950969],[30.144137,-1.950967],[30.144151,-1.950963],[30.144171,-1.950959],[30.144186,-1.950962],[30.144204,-1.950961],[30.144218,-1.950959],[30.144245,-1.950952],[30.144249,-1.950955],[30.144261,-1.950957],[30.14427,-1.950954],[30.144276,-1.950953],[30.144284,-1.950943],[30.144291,-1.950936],[30.144299,-1.950929],[30.144308,-1.950914],[30.14432,-1.950893],[30.144319,-1.950874],[30.144336,-1.950854],[30.144343,-1.950839],[30.144348,-1.950835],[30.144358,-1.950829],[30.14437,-1.950825],[30.144384,-1.950819],[30.144407,-1.950813],[30.14442,-1.950808],[30.144429,-1.950804],[30.144438,-1.950813],[30.144441,-1.950819],[30.144445,-1.950828],[30.144455,-1.950835],[30.144467,-1.950839],[30.144478,-1.950827],[30.144499,-1.950816],[30.144514,-1.950808],[30.144525,-1.950802],[30.144548,-1.950802],[30.144586,-1.950798],[30.144621,-1.950796],[30.14464,-1.950805],[30.144662,-1.950806],[30.14468,-1.950806],[30.144695,-1.9508],[30.144706,-1.950789],[30.144726,-1.950775],[30.144739,-1.950763],[30.144741,-1.950758],[30.144742,-1.950751],[30.144753,-1.950741],[30.144762,-1.950736],[30.144767,-1.950726],[30.144787,-1.95074],[30.144815,-1.950731],[30.144844,-1.950713],[30.14487,-1.95068],[30.14489,-1.950649],[30.144906,-1.950656],[30.144914,-1.950659],[30.14491,-1.950671],[30.144909,-1.950682],[30.144907,-1.950708],[30.144912,-1.950724],[30.14491,-1.950746],[30.144904,-1.950769],[30.1449,-1.950789],[30.144888,-1.950815],[30.144889,-1.95083],[30.144896,-1.950833],[30.1449,-1.950837],[30.144913,-1.950841],[30.144919,-1.950845],[30.144915,-1.950851],[30.14491,-1.950855],[30.144922,-1.950858],[30.144932,-1.950856],[30.144952,-1.950855],[30.144969,-1.950848],[30.144993,-1.950839],[30.145018,-1.950826],[30.145058,-1.950804],[30.145109,-1.950783],[30.145141,-1.950783],[30.145177,-1.950777],[30.145192,-1.950778],[30.145205,-1.950779],[30.145209,-1.950779],[30.145209,-1.950775],[30.14522,-1.950776],[30.14523,-1.950765],[30.145242,-1.950764],[30.145252,-1.95077],[30.145258,-1.950779],[30.145257,-1.950796],[30.145263,-1.9508],[30.145282,-1.950796],[30.145293,-1.950788],[30.145306,-1.950787],[30.145308,-1.950784],[30.145311,-1.950783],[30.145319,-1.950785],[30.145331,-1.950792],[30.145347,-1.950791],[30.14536,-1.950786],[30.145366,-1.950773],[30.145367,-1.950752],[30.145364,-1.95073],[30.14537,-1.95072],[30.145378,-1.950701],[30.145384,-1.950695],[30.145396,-1.950698],[30.14541,-1.95071],[30.145414,-1.950715],[30.145411,-1.950721],[30.145419,-1.950731],[30.145421,-1.950736],[30.145423,-1.950714],[30.145413,-1.950684],[30.145405,-1.950679],[30.145404,-1.95068],[30.145408,-1.950673],[30.145417,-1.950662],[30.145421,-1.950655],[30.145434,-1.950641],[30.145434,-1.950631],[30.145424,-1.950629],[30.145414,-1.950636],[30.145413,-1.950647],[30.145433,-1.950638],[30.145457,-1.950629],[30.145462,-1.950621],[30.145456,-1.950603],[30.145458,-1.950592],[30.145457,-1.9506],[30.145467,-1.950608],[30.145486,-1.950611],[30.145509,-1.950602],[30.145534,-1.950592],[30.145558,-1.950583],[30.145574,-1.950571],[30.145575,-1.950561],[30.145583,-1.950536],[30.145599,-1.950507],[30.145627,-1.950478],[30.145648,-1.950458],[30.145656,-1.950463],[30.14566,-1.950475],[30.145684,-1.95046],[30.145713,-1.950444],[30.145733,-1.950429],[30.145742,-1.950422],[30.145761,-1.950425],[30.145775,-1.950423],[30.145792,-1.95042],[30.145805,-1.95041],[30.145812,-1.950405],[30.145822,-1.950395],[30.145825,-1.950391],[30.145831,-1.950388],[30.145841,-1.950386],[30.145847,-1.950368],[30.145857,-1.950353],[30.14587,-1.950334],[30.145881,-1.95033],[30.145887,-1.950333],[30.145883,-1.950336],[30.145887,-1.950329],[30.145896,-1.950301],[30.145914,-1.950274],[30.145941,-1.95026],[30.145966,-1.950234],[30.145979,-1.950228],[30.145998,-1.950223],[30.146014,-1.950214],[30.146021,-1.950208],[30.146028,-1.950208],[30.146044,-1.950204],[30.146062,-1.950199],[30.146078,-1.950192],[30.146085,-1.950186],[30.146086,-1.950178],[30.146094,-1.950169],[30.146108,-1.950156],[30.146114,-1.950152],[30.146127,-1.950143],[30.146139,-1.950137],[30.146148,-1.950134],[30.146155,-1.95013],[30.146158,-1.950127],[30.146163,-1.950125],[30.146165,-1.950122],[30.146167,-1.950106],[30.146169,-1.950088],[30.146165,-1.950071],[30.146164,-1.950063],[30.146163,-1.950057],[30.146172,-1.950043],[30.146186,-1.950033],[30.146194,-1.950024],[30.146198,-1.950013],[30.146209,-1.95],[30.146211,-1.949988],[30.146205,-1.949984],[30.146197,-1.949982],[30.146197,-1.949984],[30.146198,-1.949979],[30.146201,-1.949967],[30.146201,-1.949952],[30.146192,-1.949935],[30.146189,-1.949918],[30.146196,-1.949896],[30.146208,-1.949876],[30.146208,-1.949856],[30.146211,-1.949843],[30.146215,-1.949836],[30.146216,-1.949825],[30.146223,-1.949821],[30.146234,-1.949817],[30.14626,-1.949811],[30.146301,-1.949802],[30.146323,-1.949807],[30.146319,-1.949804],[30.146324,-1.949806],[30.146331,-1.9498],[30.146332,-1.949786],[30.146335,-1.949762],[30.146341,-1.949745],[30.146344,-1.949738],[30.146353,-1.949737],[30.146369,-1.949737],[30.146378,-1.949731],[30.146382,-1.949723],[30.146393,-1.949723],[30.146402,-1.949725],[30.146414,-1.949725],[30.146414,-1.949731],[30.146421,-1.949727],[30.146431,-1.949709],[30.146435,-1.949691],[30.146435,-1.949676],[30.146445,-1.949655],[30.146461,-1.949634],[30.146472,-1.949629],[30.146477,-1.949623],[30.146481,-1.949613],[30.14648,-1.949601],[30.146474,-1.949581],[30.146474,-1.949552],[30.146476,-1.949535],[30.146477,-1.949523],[30.146476,-1.949524],[30.146472,-1.949527],[30.146465,-1.949524],[30.146466,-1.949517],[30.146486,-1.949507],[30.146508,-1.949494],[30.14653,-1.949479],[30.146537,-1.949466],[30.146544,-1.949448],[30.146539,-1.949433],[30.146534,-1.949409],[30.146528,-1.949379],[30.146518,-1.949353],[30.146513,-1.949335],[30.1465,-1.949316],[30.146497,-1.949327],[30.146498,-1.949322],[30.1465,-1.949321],[30.146498,-1.949315],[30.146504,-1.949312],[30.146505,-1.949312],[30.146511,-1.949309],[30.146506,-1.949304],[30.146508,-1.949306],[30.146516,-1.949304],[30.146527,-1.949305],[30.14653,-1.949295],[30.14654,-1.949279],[30.146548,-1.949268],[30.146559,-1.949253],[30.146573,-1.949237],[30.146587,-1.949219],[30.146604,-1.949207],[30.146607,-1.949205],[30.146618,-1.949197],[30.146628,-1.94919],[30.146632,-1.949169],[30.14664,-1.949136],[30.146644,-1.949106],[30.146643,-1.949088],[30.146641,-1.949073],[30.146641,-1.949057],[30.146643,-1.949038],[30.146649,-1.949036],[30.146655,-1.949025],[30.146665,-1.949011],[30.146656,-1.948995],[30.146649,-1.948977],[30.146649,-1.948952],[30.14665,-1.94893],[30.146647,-1.948903],[30.146644,-1.948902],[30.146639,-1.948911],[30.14664,-1.948893],[30.146643,-1.948877],[30.146646,-1.948861],[30.146643,-1.948848],[30.146648,-1.948839],[30.146656,-1.948824],[30.146663,-1.948817],[30.146669,-1.948813],[30.146676,-1.948811],[30.146688,-1.948801],[30.146698,-1.9488],[30.146704,-1.948795],[30.146717,-1.948786],[30.146722,-1.948773],[30.14672,-1.948762],[30.146723,-1.948754],[30.146726,-1.948755],[30.146737,-1.94876],[30.146745,-1.94877],[30.146754,-1.948774],[30.146759,-1.948772],[30.146767,-1.948758],[30.146775,-1.948747],[30.146793,-1.94874],[30.146804,-1.948726],[30.14682,-1.948714],[30.146835,-1.9487],[30.146852,-1.948685],[30.146865,-1.948667],[30.146884,-1.948646],[30.146899,-1.948631],[30.146908,-1.94862],[30.146912,-1.94862],[30.146909,-1.948605],[30.14691,-1.948587],[30.146909,-1.948566],[30.146913,-1.948541],[30.146914,-1.948518],[30.146924,-1.948513],[30.146935,-1.94851],[30.146939,-1.948514],[30.146931,-1.948517],[30.146933,-1.948521],[30.146937,-1.948522],[30.146945,-1.948522],[30.146946,-1.948529],[30.146947,-1.948537],[30.14695,-1.948535],[30.146956,-1.948526],[30.146976,-1.948521],[30.146998,-1.948513],[30.147019,-1.948503],[30.147039,-1.948494],[30.14706,-1.948485],[30.147067,-1.948481],[30.147083,-1.948476],[30.147089,-1.948475],[30.147095,-1.948468],[30.14708,-1.948461],[30.147072,-1.948452],[30.147075,-1.948443],[30.147086,-1.948441],[30.147093,-1.94845],[30.147102,-1.948452],[30.147117,-1.948451],[30.147126,-1.948446],[30.147132,-1.948439],[30.14714,-1.948443],[30.147133,-1.948444],[30.147119,-1.948434],[30.147112,-1.94843],[30.14711,-1.948427],[30.147109,-1.948418],[30.147099,-1.948416],[30.147092,-1.948413],[30.14709,-1.948416],[30.14709,-1.948418],[30.147092,-1.948417],[30.147097,-1.948411],[30.147099,-1.948412],[30.147097,-1.948406],[30.1471,-1.948406],[30.147102,-1.948404],[30.1471,-1.948405],[30.1471,-1.948393],[30.147102,-1.948395],[30.147098,-1.9484],[30.147106,-1.948408],[30.147115,-1.948416],[30.147128,-1.948424],[30.147149,-1.948429],[30.147172,-1.948434],[30.147189,-1.948441],[30.147192,-1.948437],[30.147199,-1.948434],[30.147205,-1.948434],[30.14721,-1.94843],[30.147215,-1.948415],[30.14722,-1.948397],[30.147238,-1.948378],[30.147254,-1.948367],[30.147275,-1.948355],[30.147292,-1.948353],[30.14731,-1.948357],[30.147323,-1.948362],[30.147344,-1.948365],[30.147359,-1.948365],[30.147365,-1.948367],[30.147365,-1.94836],[30.147382,-1.948354],[30.147395,-1.948354],[30.147396,-1.948346],[30.147403,-1.948339],[30.147408,-1.948327],[30.147404,-1.948313],[30.147412,-1.948304],[30.147428,-1.948304],[30.147437,-1.94829],[30.147444,-1.948271],[30.147444,-1.948254],[30.147448,-1.948242],[30.147451,-1.948232],[30.147457,-1.948219],[30.147468,-1.948192],[30.147472,-1.948165],[30.147476,-1.948133],[30.147478,-1.948127],[30.147483,-1.948133],[30.147495,-1.948137],[30.147514,-1.948123],[30.147524,-1.948114],[30.147538,-1.948108],[30.147541,-1.948102],[30.147538,-1.948093],[30.147551,-1.94808],[30.14756,-1.948067],[30.147568,-1.94805],[30.147569,-1.948029],[30.147565,-1.948015],[30.14756,-1.948001],[30.147557,-1.947983],[30.147557,-1.947964],[30.147552,-1.947957],[30.147546,-1.947948],[30.147541,-1.947936],[30.147536,-1.947931],[30.14754,-1.947923],[30.147546,-1.947915],[30.147553,-1.947901],[30.147556,-1.947889],[30.147559,-1.947877],[30.147566,-1.947862],[30.147576,-1.947849],[30.147576,-1.947843],[30.147577,-1.947833],[30.147581,-1.947825],[30.147583,-1.947814],[30.147586,-1.9478],[30.147596,-1.947786],[30.147603,-1.94777],[30.147607,-1.947758],[30.147611,-1.947742],[30.147621,-1.947728],[30.147626,-1.947715],[30.147625,-1.947698],[30.147631,-1.947676],[30.147635,-1.947669],[30.147643,-1.94767],[30.147654,-1.947661],[30.147657,-1.947647],[30.147649,-1.947636],[30.147637,-1.947626],[30.14762,-1.947614],[30.147609,-1.947608],[30.147614,-1.947594],[30.147624,-1.94758],[30.14763,-1.947562],[30.147634,-1.947544],[30.147636,-1.947531],[30.147637,-1.947518],[30.147632,-1.947502],[30.147631,-1.947487],[30.147631,-1.947471],[30.14763,-1.947455],[30.147632,-1.947444],[30.147629,-1.94744],[30.147629,-1.947431],[30.147631,-1.94743],[30.147625,-1.947412],[30.147621,-1.947387],[30.147612,-1.947376],[30.147612,-1.947361],[30.147606,-1.947348],[30.147595,-1.947336],[30.14757,-1.947328],[30.147556,-1.947319],[30.147552,-1.947317],[30.147548,-1.947313],[30.147542,-1.94731],[30.147539,-1.947309],[30.14753,-1.94731],[30.147518,-1.947317],[30.147505,-1.947325],[30.147484,-1.947332],[30.147466,-1.947325],[30.14746,-1.947323],[30.147447,-1.947318],[30.147437,-1.947305],[30.147434,-1.947293],[30.147424,-1.947288],[30.147413,-1.947295],[30.147411,-1.947296],[30.14742,-1.947293],[30.147401,-1.9473],[30.147405,-1.947302],[30.147411,-1.94731],[30.147415,-1.947314],[30.14742,-1.94731],[30.147421,-1.947309],[30.147406,-1.94731],[30.147387,-1.94731],[30.147372,-1.947302],[30.147359,-1.94729],[30.147354,-1.947289],[30.147352,-1.947287],[30.147345,-1.947269],[30.147328,-1.947261],[30.147312,-1.947257],[30.147305,-1.947255],[30.147287,-1.947247],[30.147272,-1.947244],[30.147264,-1.947249],[30.147267,-1.947246],[30.147271,-1.947234],[30.147254,-1.947218],[30.14724,-1.947204],[30.147236,-1.947184],[30.147237,-1.94717],[30.147235,-1.94716],[30.147227,-1.947155],[30.147231,-1.947145],[30.14723,-1.947146],[30.147238,-1.94714],[30.147232,-1.947121],[30.147229,-1.947114],[30.147223,-1.9471],[30.14722,-1.94709],[30.147218,-1.947078],[30.147209,-1.94706],[30.1472,-1.947054],[30.147186,-1.947045],[30.147173,-1.947037],[30.147165,-1.947037],[30.147146,-1.947032],[30.147124,-1.947028],[30.147117,-1.947024],[30.147115,-1.947028],[30.147117,-1.947031],[30.147113,-1.947027],[30.147105,-1.947032],[30.147099,-1.947026],[30.147094,-1.947022],[30.147099,-1.947003],[30.147089,-1.946997],[30.147084,-1.947],[30.147083,-1.946994],[30.147083,-1.946992],[30.147084,-1.946982],[30.147083,-1.946979],[30.147089,-1.946983],[30.147092,-1.946975],[30.147095,-1.946962],[30.147089,-1.946955],[30.147087,-1.946962],[30.147093,-1.946961],[30.147086,-1.946947],[30.147075,-1.946941],[30.14706,-1.94694],[30.14705,-1.946929],[30.147045,-1.946912],[30.147047,-1.946895],[30.147051,-1.946886],[30.14706,-1.946879],[30.147061,-1.946866],[30.147066,-1.946867],[30.147073,-1.946859],[30.147081,-1.946844],[30.147083,-1.946831],[30.147074,-1.946821],[30.147072,-1.946806],[30.147079,-1.946791],[30.147084,-1.946785],[30.147089,-1.946773],[30.147091,-1.946757],[30.147093,-1.946761],[30.147099,-1.946739],[30.147107,-1.946718],[30.147109,-1.946708],[30.147116,-1.946693],[30.147125,-1.946669],[30.147127,-1.946655],[30.14713,-1.94666],[30.147129,-1.946655],[30.14714,-1.946657],[30.147146,-1.946659],[30.147155,-1.94665],[30.147161,-1.946642],[30.147165,-1.946632],[30.147178,-1.946608],[30.147186,-1.946584],[30.147185,-1.946575],[30.147175,-1.94657],[30.147164,-1.946557],[30.147167,-1.946545],[30.147182,-1.946535],[30.147199,-1.946517],[30.1472,-1.946512],[30.147202,-1.946507],[30.14719,-1.946498],[30.147182,-1.946487],[30.147172,-1.946469],[30.147171,-1.946454],[30.147174,-1.946433],[30.147174,-1.946421],[30.147173,-1.946418],[30.147169,-1.946416],[30.147165,-1.946406],[30.14716,-1.946392],[30.147157,-1.946376],[30.14716,-1.946364],[30.147165,-1.946356],[30.14717,-1.946348],[30.147179,-1.946334],[30.147173,-1.946322],[30.147178,-1.946319],[30.147187,-1.946318],[30.147201,-1.946311],[30.14721,-1.946306],[30.147212,-1.946301],[30.147215,-1.946307],[30.147215,-1.946299],[30.147226,-1.946298],[30.147235,-1.946295],[30.147255,-1.9463],[30.147272,-1.946293],[30.147285,-1.946282],[30.147284,-1.946268],[30.147292,-1.94626],[30.147306,-1.946248],[30.147323,-1.946244],[30.147348,-1.94624],[30.147371,-1.946234],[30.147385,-1.946237],[30.147392,-1.946234],[30.147391,-1.946248],[30.147401,-1.946262],[30.147403,-1.946251],[30.147415,-1.946248],[30.14743,-1.946237],[30.147448,-1.946219],[30.147466,-1.946204],[30.147479,-1.946192],[30.147482,-1.946184],[30.147489,-1.946185],[30.14749,-1.946181],[30.1475,-1.946169],[30.147507,-1.946157],[30.147517,-1.946143],[30.147527,-1.946123],[30.147528,-1.946102],[30.147535,-1.94609],[30.147541,-1.946083],[30.147544,-1.946072],[30.14755,-1.946058],[30.147548,-1.946041],[30.147555,-1.946025],[30.147552,-1.946009],[30.147549,-1.945994],[30.147548,-1.94598],[30.147534,-1.945974],[30.147522,-1.945969],[30.147512,-1.945962],[30.147514,-1.945952],[30.147516,-1.945942],[30.147514,-1.945926],[30.147515,-1.945908],[30.147513,-1.945904],[30.147513,-1.945901],[30.147516,-1.945897],[30.147528,-1.945882],[30.147537,-1.945875],[30.147532,-1.945862],[30.14754,-1.945851],[30.147553,-1.945844],[30.147565,-1.945836],[30.147576,-1.945831],[30.147588,-1.945824],[30.147597,-1.945814],[30.147608,-1.945805],[30.147611,-1.945795],[30.147609,-1.945791],[30.147608,-1.945787],[30.147615,-1.945778],[30.147609,-1.945763],[30.147622,-1.945746],[30.147623,-1.945741],[30.147629,-1.945729],[30.147638,-1.945721],[30.147649,-1.94571],[30.147664,-1.9457],[30.147672,-1.945689],[30.147674,-1.945675],[30.147677,-1.945661],[30.147679,-1.945643],[30.147685,-1.945634],[30.147689,-1.94562],[30.147693,-1.945604],[30.147704,-1.94559],[30.147707,-1.945586],[30.147709,-1.945577],[30.14771,-1.945578],[30.147707,-1.945575],[30.147713,-1.945567],[30.147721,-1.945558],[30.147728,-1.945548],[30.147731,-1.945542],[30.147723,-1.945546],[30.147712,-1.945549],[30.147704,-1.945543],[30.147701,-1.945536],[30.14771,-1.945529],[30.147708,-1.945528],[30.147704,-1.945528],[30.147694,-1.945535],[30.147692,-1.945536],[30.147698,-1.945524],[30.147705,-1.945508],[30.147711,-1.945495],[30.147719,-1.945487],[30.147727,-1.945479],[30.14774,-1.945486],[30.147732,-1.945482],[30.147729,-1.945487],[30.147727,-1.94549],[30.147731,-1.945493],[30.147733,-1.945495],[30.147712,-1.945494],[30.147713,-1.945493],[30.147716,-1.945489],[30.147721,-1.945496],[30.147729,-1.945495],[30.147733,-1.9455],[30.147735,-1.945508],[30.147734,-1.945515],[30.147735,-1.945522],[30.147739,-1.945518],[30.147737,-1.945517],[30.147742,-1.94552],[30.147744,-1.945515],[30.147745,-1.945506],[30.147736,-1.945482],[30.147735,-1.945461],[30.147736,-1.945443],[30.147734,-1.945425],[30.147723,-1.94542],[30.147718,-1.945413],[30.147722,-1.945398],[30.147729,-1.94539],[30.147733,-1.945387],[30.147736,-1.945377],[30.147739,-1.945365],[30.147749,-1.945366],[30.147741,-1.94535],[30.147741,-1.945354],[30.147729,-1.94535],[30.147738,-1.945346],[30.147736,-1.945347],[30.147736,-1.945341],[30.147742,-1.945332],[30.147739,-1.945326],[30.147738,-1.945316],[30.147743,-1.945294],[30.147746,-1.945282],[30.14774,-1.945282],[30.147748,-1.945278],[30.147758,-1.945271],[30.147766,-1.945263],[30.147774,-1.945242],[30.147781,-1.94523],[30.147774,-1.945228],[30.147758,-1.945236],[30.14776,-1.945225],[30.147776,-1.945216],[30.147778,-1.945207],[30.147781,-1.945201],[30.14778,-1.945195],[30.147784,-1.945212],[30.147776,-1.945211],[30.147777,-1.945206],[30.147776,-1.945206],[30.147773,-1.945204],[30.147768,-1.945196],[30.147769,-1.945187],[30.147775,-1.945194],[30.147781,-1.945191],[30.14778,-1.945189],[30.147769,-1.945191],[30.147746,-1.945199],[30.147735,-1.945205],[30.147725,-1.945211],[30.147727,-1.945214],[30.147727,-1.945216],[30.147724,-1.945219],[30.147727,-1.945221],[30.147728,-1.945209],[30.147737,-1.9452],[30.14775,-1.945198],[30.147758,-1.945193],[30.147771,-1.945199],[30.147768,-1.94519],[30.147773,-1.945182],[30.147771,-1.945191],[30.147763,-1.945193],[30.147759,-1.9452],[30.147755,-1.945213],[30.147753,-1.945215],[30.147752,-1.945216],[30.147748,-1.945213],[30.147747,-1.945209],[30.14774,-1.94521],[30.147732,-1.945218],[30.147731,-1.945219],[30.147736,-1.945222],[30.147735,-1.945223],[30.147741,-1.945217],[30.147748,-1.945219],[30.147747,-1.945213],[30.147739,-1.94521],[30.147746,-1.945211],[30.147757,-1.945201],[30.147764,-1.945193],[30.14777,-1.945183],[30.147766,-1.945185],[30.147759,-1.945193],[30.147763,-1.94519],[30.147763,-1.945188],[30.147759,-1.945187],[30.147761,-1.945188],[30.147772,-1.945181],[30.147765,-1.945193],[30.147759,-1.945198],[30.147759,-1.945193],[30.147753,-1.945202],[30.147753,-1.945203],[30.147758,-1.94521],[30.147759,-1.945212],[30.147754,-1.945217],[30.147753,-1.945215],[30.147767,-1.945206],[30.147767,-1.945195],[30.147769,-1.945208],[30.147771,-1.945202],[30.147773,-1.945196],[30.147777,-1.945187],[30.147787,-1.945188],[30.147796,-1.945198],[30.147803,-1.945205],[30.147791,-1.945206],[30.147781,-1.945208],[30.147771,-1.945214],[30.147764,-1.945216],[30.147761,-1.945216],[30.147772,-1.945216],[30.14777,-1.945217],[30.147771,-1.945218],[30.147773,-1.945216],[30.147768,-1.945214],[30.14776,-1.945212],[30.147757,-1.945202],[30.147763,-1.945214],[30.147752,-1.945221],[30.14776,-1.945214],[30.147764,-1.945206],[30.147762,-1.945206],[30.147761,-1.94521],[30.147766,-1.945217],[30.147763,-1.945224],[30.147757,-1.945223],[30.147771,-1.945217],[30.147778,-1.945215],[30.147785,-1.945213],[30.147791,-1.945211],[30.147795,-1.945206],[30.147808,-1.945203],[30.147811,-1.945193],[30.147813,-1.945189],[30.147821,-1.945182],[30.14783,-1.945178],[30.147844,-1.94518],[30.147853,-1.945175],[30.147856,-1.945171],[30.147876,-1.945179],[30.147877,-1.945173],[30.147885,-1.94517],[30.147891,-1.945167],[30.147902,-1.945146],[30.147905,-1.945128],[30.147905,-1.94511],[30.147916,-1.94511],[30.147928,-1.945125],[30.147923,-1.945125],[30.14791,-1.945145],[30.147907,-1.945148],[30.147904,-1.945143],[30.147899,-1.945171],[30.147894,-1.945182],[30.147889,-1.945176],[30.147886,-1.94517],[30.147883,-1.945167],[30.147887,-1.945172],[30.14789,-1.945174],[30.147889,-1.945169],[30.147896,-1.945167],[30.147899,-1.945164],[30.1479,-1.945164],[30.147904,-1.945158],[30.147904,-1.945155],[30.147905,-1.945153],[30.147909,-1.945141],[30.147917,-1.945137],[30.147914,-1.945141],[30.147898,-1.945138],[30.147889,-1.945134],[30.147891,-1.945133],[30.147903,-1.945129],[30.147915,-1.945138],[30.147931,-1.945135],[30.147944,-1.94513],[30.147956,-1.945118],[30.147965,-1.945104],[30.147973,-1.945093],[30.147982,-1.945083],[30.147987,-1.945074],[30.147984,-1.945059],[30.147976,-1.94505],[30.147976,-1.945059],[30.147969,-1.945069],[30.147987,-1.945067],[30.148,-1.945071],[30.14802,-1.945069],[30.148032,-1.945063],[30.148044,-1.945063],[30.148058,-1.945063],[30.148071,-1.945064],[30.148085,-1.945063],[30.148096,-1.945063],[30.148111,-1.945064],[30.148122,-1.94507],[30.148136,-1.945062],[30.148145,-1.945053],[30.148156,-1.945053],[30.148163,-1.945055],[30.148176,-1.945061],[30.148191,-1.945063],[30.148208,-1.945062],[30.148221,-1.945061],[30.148224,-1.945053],[30.148233,-1.945049],[30.148243,-1.945051],[30.148256,-1.945049],[30.148268,-1.945045],[30.148286,-1.945038],[30.148293,-1.945036],[30.148307,-1.945042],[30.148323,-1.945042],[30.148336,-1.945042],[30.148351,-1.945037],[30.148364,-1.945033],[30.148382,-1.945029],[30.148401,-1.945026],[30.148424,-1.945025],[30.148435,-1.945026],[30.148454,-1.945026],[30.148466,-1.945034],[30.148479,-1.945036],[30.148484,-1.945037],[30.1485,-1.945045],[30.148506,-1.945042],[30.148512,-1.945043],[30.148528,-1.945046],[30.148551,-1.945049],[30.148571,-1.945053],[30.148582,-1.945055],[30.148596,-1.94506],[30.148604,-1.945064],[30.148614,-1.945068],[30.148627,-1.94507],[30.148635,-1.945077],[30.148647,-1.94508],[30.148668,-1.945089],[30.148697,-1.9451],[30.148691,-1.945087],[30.148681,-1.945077],[30.148679,-1.945074],[30.148679,-1.94507],[30.148691,-1.945066],[30.148702,-1.945076],[30.148715,-1.945082],[30.148728,-1.945083],[30.148742,-1.94508],[30.148755,-1.945073],[30.148765,-1.945069],[30.148779,-1.945065],[30.148786,-1.945075],[30.1488,-1.945076],[30.148814,-1.945089],[30.148826,-1.945093],[30.148824,-1.945098],[30.14882,-1.945104],[30.148819,-1.945118],[30.148821,-1.945134],[30.14883,-1.945145],[30.148832,-1.945148],[30.148835,-1.945158],[30.148847,-1.945165],[30.148848,-1.945173],[30.148856,-1.945185],[30.148868,-1.945198],[30.148873,-1.945206],[30.148872,-1.945228],[30.148875,-1.945234],[30.148889,-1.945242],[30.148903,-1.945239],[30.148915,-1.945233],[30.148934,-1.945229],[30.148945,-1.945228],[30.148963,-1.94522],[30.148978,-1.945218],[30.148988,-1.945216],[30.148995,-1.945216],[30.149003,-1.94521],[30.149019,-1.945208],[30.149039,-1.945201],[30.149056,-1.945197],[30.149057,-1.945201],[30.149056,-1.9452],[30.149057,-1.945202],[30.149073,-1.945212],[30.149091,-1.945218],[30.149107,-1.945228],[30.149118,-1.945218],[30.149122,-1.945217],[30.149121,-1.945222],[30.149129,-1.945231],[30.149134,-1.945228],[30.149148,-1.945237],[30.149149,-1.945245],[30.149154,-1.945253],[30.149159,-1.945259],[30.149168,-1.945275],[30.14918,-1.945283],[30.149192,-1.945289],[30.149196,-1.945291],[30.149225,-1.945312],[30.149229,-1.945316],[30.149232,-1.94532],[30.149233,-1.945326],[30.149233,-1.945337],[30.149244,-1.945343],[30.149254,-1.945347],[30.149273,-1.945356],[30.149291,-1.945368],[30.149302,-1.945378],[30.149311,-1.945387],[30.149315,-1.945401],[30.14933,-1.945405],[30.149335,-1.945409],[30.149343,-1.945416],[30.149354,-1.945423],[30.149339,-1.945422],[30.149347,-1.945425],[30.14936,-1.945439],[30.149377,-1.945456],[30.149394,-1.945461],[30.149403,-1.945465],[30.149414,-1.945462],[30.14943,-1.945467],[30.149441,-1.945472],[30.149456,-1.945477],[30.149458,-1.945487],[30.149465,-1.945481],[30.149468,-1.945483],[30.149465,-1.945482],[30.149466,-1.94548],[30.149467,-1.945481],[30.149466,-1.945484],[30.149464,-1.94549],[30.149465,-1.945493],[30.149464,-1.945497],[30.149473,-1.945502],[30.149485,-1.945508],[30.149499,-1.945512],[30.14951,-1.945511],[30.149512,-1.945507],[30.149522,-1.945513],[30.149526,-1.945524],[30.149536,-1.945533],[30.149546,-1.945536],[30.149557,-1.945538],[30.14958,-1.945545],[30.149593,-1.945555],[30.149602,-1.945556],[30.149606,-1.945567],[30.1496,-1.945573],[30.149606,-1.945581],[30.149619,-1.945592],[30.149633,-1.9456],[30.149643,-1.94561],[30.149662,-1.945616],[30.149669,-1.945617],[30.14969,-1.945623],[30.149709,-1.945639],[30.149732,-1.94565],[30.149746,-1.945669],[30.149749,-1.945681],[30.149754,-1.945694],[30.149747,-1.945705],[30.149735,-1.945713],[30.149729,-1.945719],[30.149731,-1.945726],[30.14974,-1.94573],[30.149749,-1.945736],[30.149752,-1.945745],[30.14976,-1.945752],[30.149772,-1.945768],[30.149786,-1.945789],[30.149793,-1.945804],[30.149797,-1.945809],[30.149809,-1.945816],[30.149823,-1.945821],[30.149818,-1.945823],[30.149817,-1.945832],[30.149814,-1.945846],[30.149813,-1.94585],[30.149811,-1.945858],[30.149815,-1.945865],[30.149829,-1.94587],[30.149849,-1.945872],[30.149863,-1.945879],[30.149872,-1.945885],[30.149873,-1.945889],[30.149862,-1.945885],[30.149859,-1.945881],[30.149864,-1.945881],[30.149867,-1.945878],[30.149866,-1.945877],[30.149864,-1.945876],[30.149858,-1.945879],[30.149837,-1.945884],[30.149829,-1.945892],[30.149828,-1.945903],[30.149829,-1.945911],[30.149825,-1.945912],[30.149821,-1.945915],[30.14983,-1.945912],[30.149846,-1.945906],[30.149859,-1.945913],[30.149869,-1.945919],[30.149882,-1.945935],[30.14989,-1.945953],[30.149891,-1.945965],[30.149894,-1.94598],[30.149894,-1.945983],[30.149893,-1.945985],[30.149894,-1.945996],[30.149899,-1.94601],[30.14991,-1.94602],[30.149923,-1.946035],[30.149942,-1.94605],[30.149954,-1.946061],[30.149958,-1.946082],[30.149955,-1.946082],[30.149957,-1.94608],[30.149964,-1.946088],[30.149975,-1.946094],[30.14999,-1.9461],[30.149996,-1.946113],[30.150008,-1.946111],[30.150012,-1.946108],[30.150018,-1.946118],[30.150025,-1.946133],[30.150036,-1.946148],[30.150045,-1.946144],[30.150048,-1.946157],[30.150052,-1.946169],[30.150056,-1.946175],[30.150062,-1.946185],[30.150063,-1.946191],[30.150068,-1.9462],[30.150073,-1.946213],[30.150069,-1.946225],[30.150068,-1.946242],[30.150076,-1.946251],[30.150075,-1.946256],[30.150076,-1.946267],[30.150084,-1.946276],[30.150085,-1.94628],[30.15008,-1.946292],[30.150065,-1.946297],[30.150074,-1.946302],[30.150079,-1.946306],[30.150082,-1.946318],[30.150083,-1.946332],[30.150087,-1.946339],[30.150087,-1.946351],[30.15009,-1.946353],[30.150089,-1.946348],[30.150091,-1.946341],[30.150094,-1.946341],[30.150089,-1.946343],[30.150091,-1.946344],[30.150092,-1.946347],[30.150086,-1.946354],[30.150082,-1.946362],[30.150087,-1.946366],[30.150092,-1.946368],[30.150103,-1.946363],[30.150111,-1.946359],[30.150111,-1.946355],[30.150108,-1.946357],[30.150107,-1.946355],[30.150111,-1.946345],[30.15011,-1.946341],[30.150097,-1.946347],[30.150087,-1.946358],[30.150084,-1.946359],[30.15009,-1.946355],[30.150086,-1.946358],[30.150079,-1.946367],[30.150068,-1.946381],[30.150062,-1.946391],[30.150069,-1.94639],[30.150075,-1.946395],[30.150073,-1.9464],[30.150068,-1.946408],[30.150063,-1.946424],[30.150058,-1.946439],[30.150051,-1.946461],[30.150043,-1.946492],[30.150038,-1.946515],[30.150037,-1.946533],[30.150045,-1.946533],[30.150046,-1.946527],[30.150048,-1.946541],[30.150041,-1.946556],[30.150032,-1.946578],[30.15002,-1.946599],[30.150007,-1.946614],[30.149996,-1.946628],[30.149989,-1.946636],[30.149981,-1.946645],[30.149975,-1.946653],[30.149962,-1.946653],[30.149952,-1.946663],[30.149947,-1.946668],[30.149949,-1.94667],[30.149949,-1.946681],[30.149943,-1.946696],[30.14995,-1.946712],[30.149952,-1.946726],[30.149949,-1.94674],[30.149947,-1.946756],[30.149944,-1.946767],[30.14994,-1.946774],[30.149934,-1.946781],[30.149934,-1.946796],[30.149932,-1.946806],[30.149933,-1.946818],[30.149932,-1.946835],[30.149928,-1.946851],[30.149923,-1.946863],[30.14992,-1.946873],[30.149922,-1.946873],[30.149919,-1.946884],[30.149912,-1.946898],[30.149907,-1.946915],[30.149906,-1.94693],[30.149906,-1.946947],[30.149907,-1.946955],[30.149914,-1.94696],[30.149919,-1.946966],[30.149933,-1.946966],[30.149948,-1.94697],[30.149956,-1.946975],[30.149959,-1.94698],[30.149959,-1.946982],[30.149956,-1.946986],[30.149958,-1.946994],[30.149957,-1.947011],[30.149942,-1.947024],[30.149927,-1.947041],[30.149922,-1.947047],[30.149913,-1.94705],[30.149902,-1.947049],[30.149896,-1.947053],[30.14989,-1.947054],[30.14989,-1.947041],[30.149888,-1.947033],[30.149875,-1.947037],[30.149859,-1.947036],[30.149843,-1.947035],[30.149821,-1.94704],[30.149808,-1.947048],[30.149793,-1.94705],[30.149784,-1.947058],[30.149777,-1.947064],[30.149773,-1.947074],[30.149771,-1.947083],[30.149772,-1.947094],[30.149765,-1.947114],[30.149756,-1.947134],[30.149748,-1.947145],[30.149737,-1.947153],[30.149732,-1.947161],[30.149723,-1.947178],[30.149721,-1.947192],[30.149715,-1.947208],[30.1497,-1.947217],[30.149686,-1.947223],[30.149675,-1.947213],[30.14967,-1.947208],[30.149664,-1.947213],[30.149658,-1.947226],[30.14965,-1.947244],[30.149638,-1.947256],[30.149628,-1.947264],[30.149618,-1.947273],[30.149616,-1.947282],[30.149612,-1.947292],[30.149604,-1.947306],[30.149594,-1.94731],[30.149581,-1.947326],[30.14957,-1.947334],[30.149568,-1.947324],[30.149561,-1.947327],[30.149555,-1.947333],[30.149541,-1.947348],[30.149532,-1.947355],[30.14951,-1.947371],[30.149495,-1.94738],[30.149478,-1.94739],[30.149464,-1.947394],[30.149459,-1.947399],[30.149459,-1.947408],[30.149455,-1.947409],[30.149454,-1.947418],[30.149447,-1.947426],[30.149433,-1.947442],[30.149421,-1.947447],[30.149413,-1.947448],[30.149402,-1.94746],[30.149399,-1.947468],[30.149387,-1.947485],[30.149375,-1.947506],[30.149363,-1.947526],[30.149357,-1.947537],[30.149344,-1.947543],[30.149333,-1.947548],[30.149324,-1.947547],[30.149327,-1.947541],[30.149324,-1.947549],[30.149317,-1.947564],[30.149305,-1.947571],[30.149296,-1.947581],[30.149287,-1.947591],[30.149275,-1.947598],[30.149259,-1.94761],[30.149248,-1.947613],[30.149245,-1.947621],[30.149243,-1.947629],[30.14923,-1.947641],[30.149222,-1.947655],[30.149214,-1.947663],[30.149205,-1.94767],[30.149192,-1.947682],[30.149185,-1.947689],[30.149177,-1.947696],[30.149167,-1.947701],[30.149153,-1.947714],[30.149151,-1.947715],[30.14915,-1.947719],[30.149148,-1.947728],[30.149144,-1.947749],[30.149137,-1.947763],[30.14913,-1.947783],[30.14912,-1.947807],[30.149106,-1.947824],[30.149099,-1.947829],[30.149093,-1.947822],[30.149089,-1.947818],[30.149085,-1.947829],[30.149077,-1.947842],[30.149076,-1.947838],[30.149069,-1.947853],[30.149065,-1.94787],[30.149058,-1.947888],[30.149048,-1.947908],[30.149029,-1.94793],[30.149013,-1.94794],[30.148994,-1.947939],[30.148992,-1.947938],[30.148994,-1.947936],[30.148997,-1.94794],[30.148996,-1.94795],[30.14899,-1.947973],[30.148988,-1.948005],[30.14899,-1.948006],[30.148995,-1.948008],[30.148993,-1.948012],[30.148991,-1.948016],[30.148986,-1.948018],[30.148982,-1.948016],[30.148983,-1.948015],[30.148965,-1.948021],[30.148972,-1.948018],[30.148968,-1.948027],[30.148966,-1.948035],[30.148943,-1.948047],[30.148934,-1.948059],[30.148924,-1.948074],[30.148921,-1.948082],[30.148926,-1.948078],[30.148911,-1.948081],[30.1489,-1.948078],[30.148898,-1.948076],[30.148885,-1.948092],[30.148883,-1.948107],[30.148875,-1.948126],[30.148871,-1.948147],[30.148863,-1.948158],[30.148853,-1.948167],[30.148842,-1.948177],[30.148836,-1.948186],[30.148834,-1.948197],[30.148833,-1.948197],[30.148821,-1.948208],[30.148819,-1.948224],[30.148817,-1.948238],[30.148814,-1.948254],[30.148808,-1.948269],[30.148802,-1.948272],[30.148793,-1.948285],[30.148781,-1.948295],[30.14877,-1.948307],[30.148767,-1.948321],[30.148766,-1.948331],[30.148768,-1.948343],[30.148768,-1.94836],[30.148764,-1.948378],[30.148761,-1.948385],[30.148759,-1.948391],[30.148745,-1.948406],[30.148743,-1.948419],[30.148752,-1.948437],[30.148755,-1.948454],[30.14875,-1.948466],[30.148741,-1.948482],[30.148736,-1.948497],[30.14873,-1.948502],[30.148729,-1.948511],[30.148721,-1.948521],[30.148713,-1.948521],[30.148703,-1.948529],[30.148692,-1.948541],[30.148678,-1.94856],[30.148669,-1.948576],[30.148668,-1.948583],[30.148659,-1.94859],[30.14865,-1.948604],[30.148652,-1.948616],[30.148653,-1.948634],[30.148651,-1.948653],[30.148643,-1.948671],[30.14864,-1.948689],[30.148634,-1.948701],[30.148631,-1.948705],[30.14864,-1.948703],[30.148648,-1.948709],[30.148651,-1.948716],[30.148649,-1.948731],[30.148652,-1.948745],[30.14865,-1.948771],[30.148653,-1.948784],[30.148649,-1.948796],[30.148644,-1.948807],[30.148643,-1.948817],[30.148648,-1.948824],[30.148649,-1.948836],[30.14865,-1.948849],[30.148649,-1.948859],[30.148645,-1.948866],[30.148635,-1.948876],[30.148622,-1.948892],[30.148614,-1.948914],[30.14861,-1.948919],[30.148611,-1.948925],[30.148599,-1.948937],[30.148588,-1.948955],[30.148582,-1.948974],[30.148572,-1.948988],[30.148568,-1.949],[30.14856,-1.949008],[30.148546,-1.948999],[30.148536,-1.948989],[30.148527,-1.948995],[30.148526,-1.949001],[30.14852,-1.949011],[30.148506,-1.949019],[30.148494,-1.949026],[30.148479,-1.94904],[30.148464,-1.949049],[30.148451,-1.949053],[30.148445,-1.949057],[30.14843,-1.949064],[30.148413,-1.949077],[30.148405,-1.949087],[30.148398,-1.949094],[30.148387,-1.949101],[30.148386,-1.949097],[30.148386,-1.949099],[30.148373,-1.949106],[30.148359,-1.949107],[30.148337,-1.949121],[30.148333,-1.949129],[30.148328,-1.949145],[30.148321,-1.949163],[30.14831,-1.949171],[30.148302,-1.949176],[30.148288,-1.949179],[30.148269,-1.949183],[30.148257,-1.949192],[30.148244,-1.949193],[30.148232,-1.949206],[30.148219,-1.94922],[30.148211,-1.949234],[30.148208,-1.949246],[30.148198,-1.949254],[30.148191,-1.949256],[30.148176,-1.949264],[30.148163,-1.949276],[30.148151,-1.949272],[30.148141,-1.949289],[30.14813,-1.949296],[30.148126,-1.949307],[30.148119,-1.949318],[30.148111,-1.949335],[30.148106,-1.94935],[30.148103,-1.949371],[30.148101,-1.949391],[30.148097,-1.949404],[30.148089,-1.949406],[30.148085,-1.949412],[30.14808,-1.94942],[30.148077,-1.949432],[30.148071,-1.949444],[30.14807,-1.949461],[30.14807,-1.949469],[30.148068,-1.949475],[30.148065,-1.949497],[30.148059,-1.949517],[30.148052,-1.949532],[30.148047,-1.949537],[30.148048,-1.949537],[30.148046,-1.949548],[30.14805,-1.949556],[30.14805,-1.949573],[30.148048,-1.949596],[30.148048,-1.949624],[30.148044,-1.949643],[30.14804,-1.949659],[30.148037,-1.949664],[30.148036,-1.949667],[30.148036,-1.949668],[30.148026,-1.949674],[30.148013,-1.949687],[30.148015,-1.949704],[30.148017,-1.949725],[30.148015,-1.949741],[30.148014,-1.949762],[30.148014,-1.94978],[30.14801,-1.949795],[30.148009,-1.949795],[30.148001,-1.949808],[30.147998,-1.949816],[30.147996,-1.949826],[30.147996,-1.94984],[30.147999,-1.949848],[30.147992,-1.949862],[30.147987,-1.949881],[30.147981,-1.94989],[30.147978,-1.949907],[30.147979,-1.949909],[30.14798,-1.949922],[30.147978,-1.949936],[30.147977,-1.94995],[30.147973,-1.94996],[30.147966,-1.949982],[30.147959,-1.950004],[30.147954,-1.950029],[30.147958,-1.950038],[30.147968,-1.95004],[30.147974,-1.950053],[30.147984,-1.950061],[30.147984,-1.950067],[30.147978,-1.950082],[30.147974,-1.950103],[30.14796,-1.950121],[30.147942,-1.950131],[30.147939,-1.950139],[30.147937,-1.950156],[30.14794,-1.950164],[30.147936,-1.950177],[30.147929,-1.950197],[30.147921,-1.950215],[30.147913,-1.950226],[30.147913,-1.950242],[30.14791,-1.950259],[30.147903,-1.950268],[30.147905,-1.95028],[30.147911,-1.950285],[30.147913,-1.950295],[30.147911,-1.950305],[30.147914,-1.950318],[30.147915,-1.950336],[30.147915,-1.950354],[30.147903,-1.950375],[30.147898,-1.950378],[30.14789,-1.95038],[30.147889,-1.950392],[30.147891,-1.950399],[30.147894,-1.95041],[30.147892,-1.95043],[30.147888,-1.950449],[30.147882,-1.950469],[30.14788,-1.950482],[30.147879,-1.950486],[30.147882,-1.950504],[30.147887,-1.950518],[30.147884,-1.950527],[30.147878,-1.950547],[30.147876,-1.950561],[30.147874,-1.950571],[30.14787,-1.950582],[30.147864,-1.950601],[30.147858,-1.950615],[30.147851,-1.950624],[30.147853,-1.950633],[30.147857,-1.950631],[30.147859,-1.95064],[30.147857,-1.950651],[30.147853,-1.950667],[30.147851,-1.950688],[30.14785,-1.950707],[30.147848,-1.950729],[30.147851,-1.950731],[30.14785,-1.950741],[30.147853,-1.950754],[30.14785,-1.950765],[30.147847,-1.950777],[30.147846,-1.950791],[30.147848,-1.950806],[30.147849,-1.950822],[30.14785,-1.95084],[30.147851,-1.950859],[30.147853,-1.950867],[30.147851,-1.950887],[30.147849,-1.950896],[30.147847,-1.950902],[30.14784,-1.950918],[30.147838,-1.950931],[30.147825,-1.950955],[30.147828,-1.95097],[30.147826,-1.950979],[30.147826,-1.950992],[30.147831,-1.950988],[30.14784,-1.950997],[30.147838,-1.951012],[30.147835,-1.95102],[30.147844,-1.951037],[30.147859,-1.95105],[30.147868,-1.951068],[30.147876,-1.951082],[30.147882,-1.951092],[30.147889,-1.951114],[30.147892,-1.951132],[30.147895,-1.951144],[30.147895,-1.951154],[30.147902,-1.951164],[30.147902,-1.951162],[30.14791,-1.951164],[30.147919,-1.951172],[30.147919,-1.951191],[30.147921,-1.951212],[30.147916,-1.951236],[30.147916,-1.951255],[30.14792,-1.951252],[30.147917,-1.951247],[30.147923,-1.951234],[30.14793,-1.951222],[30.14793,-1.951218],[30.147932,-1.95121],[30.147932,-1.951203],[30.147932,-1.951215],[30.14793,-1.951223],[30.147931,-1.951236],[30.147935,-1.951243],[30.147939,-1.951254],[30.147957,-1.951266],[30.14797,-1.951267],[30.147965,-1.951277],[30.147965,-1.951295],[30.14797,-1.951313],[30.147977,-1.951326],[30.147981,-1.951336],[30.147985,-1.951352],[30.147987,-1.951367],[30.147984,-1.951374],[30.147984,-1.951387],[30.14798,-1.95139],[30.147983,-1.951388],[30.147992,-1.951378],[30.148003,-1.951364],[30.148006,-1.951362],[30.148008,-1.951376],[30.148018,-1.951385],[30.148027,-1.951395],[30.148033,-1.951413],[30.148032,-1.951421],[30.148035,-1.951427],[30.148046,-1.951434],[30.148047,-1.951447],[30.148054,-1.951449],[30.14806,-1.951455],[30.148072,-1.951466],[30.148086,-1.951483],[30.148092,-1.951505],[30.148098,-1.951525],[30.148101,-1.951526],[30.148103,-1.951527],[30.148108,-1.951532],[30.148112,-1.951531],[30.148123,-1.951544],[30.14814,-1.951557],[30.148155,-1.951568],[30.148175,-1.951584],[30.148189,-1.951598],[30.148202,-1.951612],[30.148211,-1.951628],[30.148213,-1.951636],[30.148218,-1.951643],[30.148222,-1.951646],[30.148222,-1.951654],[30.148226,-1.951656],[30.148233,-1.95166],[30.148245,-1.951671],[30.148248,-1.951689],[30.148257,-1.951708],[30.148267,-1.951734],[30.148289,-1.951746],[30.148309,-1.951755],[30.148318,-1.951765],[30.14833,-1.951772],[30.14834,-1.951772],[30.148344,-1.951776],[30.148351,-1.951786],[30.148357,-1.951795],[30.148361,-1.951806],[30.14837,-1.951817],[30.148378,-1.951828],[30.148397,-1.951832],[30.14841,-1.951839],[30.148417,-1.951846],[30.148423,-1.951851],[30.14843,-1.951858],[30.148446,-1.951859],[30.148456,-1.951869],[30.148465,-1.95188],[30.148477,-1.951896],[30.148489,-1.951913],[30.148494,-1.951922],[30.148508,-1.951935],[30.14851,-1.95194],[30.14851,-1.951941],[30.148513,-1.951941],[30.148519,-1.951942],[30.148535,-1.951949],[30.148548,-1.951963],[30.148554,-1.951973],[30.148557,-1.951989],[30.148558,-1.952006],[30.148565,-1.952009],[30.148571,-1.952004],[30.148574,-1.951999],[30.148577,-1.952006],[30.148582,-1.952007],[30.148588,-1.952016],[30.148589,-1.952014],[30.148594,-1.952025],[30.148594,-1.952042],[30.148598,-1.952059],[30.148601,-1.952078],[30.14861,-1.9521],[30.148617,-1.95211],[30.148622,-1.952116],[30.148626,-1.952113],[30.148625,-1.952115],[30.148634,-1.95213],[30.148634,-1.952143],[30.148636,-1.952153],[30.148643,-1.952158],[30.148655,-1.952169],[30.148663,-1.952184],[30.148667,-1.952194],[30.148661,-1.952196],[30.148665,-1.952205],[30.148667,-1.95222],[30.148668,-1.952231],[30.148674,-1.952249],[30.148688,-1.95226],[30.148696,-1.952268],[30.1487,-1.952279],[30.148699,-1.952279],[30.148702,-1.952286],[30.148703,-1.952298],[30.148706,-1.952313],[30.148716,-1.952327],[30.148729,-1.952332],[30.148737,-1.952339],[30.148744,-1.952348],[30.148747,-1.95236],[30.148754,-1.952371],[30.148763,-1.952387],[30.148771,-1.952396],[30.148783,-1.95241],[30.148795,-1.952413],[30.148809,-1.952425],[30.148822,-1.952423],[30.148834,-1.952435],[30.14884,-1.952452],[30.148843,-1.952467],[30.148838,-1.952477],[30.148845,-1.952486],[30.148853,-1.952489],[30.148859,-1.95249],[30.14886,-1.952498],[30.148861,-1.952506],[30.14887,-1.952525],[30.148885,-1.952538],[30.148888,-1.952553],[30.148897,-1.952557],[30.148909,-1.952563],[30.148918,-1.952565],[30.148921,-1.95257],[30.148926,-1.952577],[30.148928,-1.952585],[30.14894,-1.952594],[30.14895,-1.95261],[30.148959,-1.952623],[30.148962,-1.952638],[30.148965,-1.952643],[30.14897,-1.952653],[30.148971,-1.952665],[30.14898,-1.952674],[30.148989,-1.952691],[30.148999,-1.95271],[30.149008,-1.952731],[30.149016,-1.952748],[30.149021,-1.952764],[30.14903,-1.952781],[30.149036,-1.952791],[30.14904,-1.952793],[30.149044,-1.952804],[30.149051,-1.952819],[30.149056,-1.952824],[30.149058,-1.95283],[30.149066,-1.952835],[30.149072,-1.952846],[30.149075,-1.952865],[30.149067,-1.952879],[30.149076,-1.95289],[30.149078,-1.9529],[30.149081,-1.952905],[30.149083,-1.952912],[30.149085,-1.952922],[30.14909,-1.952936],[30.149097,-1.952948],[30.149099,-1.952964],[30.149108,-1.952985],[30.149114,-1.953004],[30.14912,-1.953014],[30.149125,-1.953022],[30.149131,-1.953028],[30.149138,-1.953036],[30.149145,-1.953046],[30.149151,-1.953045],[30.149156,-1.953054],[30.149159,-1.953076],[30.149168,-1.953103],[30.149167,-1.953107],[30.149173,-1.953117],[30.149172,-1.953122],[30.149178,-1.953133],[30.149184,-1.953139],[30.149186,-1.953155],[30.149189,-1.953173],[30.149197,-1.95319],[30.149204,-1.953204],[30.14921,-1.953215],[30.149221,-1.95323],[30.149224,-1.953237],[30.149225,-1.953248],[30.14923,-1.953258],[30.149236,-1.953264],[30.149239,-1.953274],[30.149241,-1.953279],[30.149242,-1.953286],[30.149252,-1.953299],[30.149252,-1.953304],[30.149256,-1.953322],[30.149263,-1.953338],[30.149268,-1.953346],[30.149281,-1.953353],[30.149291,-1.953359],[30.149299,-1.953373],[30.149306,-1.95339],[30.149309,-1.953411],[30.14932,-1.953423],[30.149303,-1.953435],[30.149313,-1.953438],[30.149323,-1.953442],[30.149327,-1.953452],[30.149321,-1.953463],[30.149317,-1.953477],[30.14932,-1.953492],[30.149333,-1.953506],[30.149351,-1.953515],[30.149351,-1.953533],[30.149355,-1.953545],[30.149356,-1.95356],[30.149365,-1.95356],[30.149372,-1.953559],[30.149373,-1.953569],[30.149379,-1.95359],[30.149392,-1.953601],[30.149397,-1.953612],[30.149408,-1.953619],[30.149416,-1.95363],[30.149424,-1.953636],[30.149432,-1.95364],[30.149443,-1.953649],[30.149456,-1.953663],[30.149456,-1.953679],[30.149453,-1.953692],[30.149457,-1.953708],[30.14946,-1.953718],[30.149473,-1.953727],[30.149475,-1.953735],[30.149472,-1.953752],[30.149471,-1.953768],[30.149476,-1.953784],[30.149484,-1.953792],[30.149495,-1.95381],[30.149504,-1.953824],[30.14951,-1.953832],[30.149512,-1.95384],[30.149511,-1.953847],[30.149514,-1.953861],[30.149522,-1.953877],[30.149529,-1.953881],[30.149537,-1.953891],[30.149547,-1.953901],[30.149557,-1.953917],[30.149569,-1.953936],[30.149578,-1.953954],[30.14959,-1.953963],[30.149601,-1.95398],[30.149599,-1.953979],[30.149596,-1.953982],[30.149594,-1.953991],[30.149596,-1.954001],[30.1496,-1.954016],[30.149611,-1.954036],[30.149623,-1.954059],[30.149635,-1.954078],[30.149645,-1.954091],[30.149661,-1.954091],[30.149673,-1.954096],[30.149667,-1.954106],[30.149671,-1.954121],[30.149664,-1.954127],[30.149663,-1.954136],[30.149663,-1.954152],[30.149665,-1.954169],[30.14967,-1.95418],[30.149682,-1.954191],[30.149684,-1.954206],[30.149689,-1.954225],[30.149692,-1.95423],[30.14969,-1.954229],[30.1497,-1.954239],[30.149707,-1.954247],[30.149713,-1.954262],[30.149716,-1.954284],[30.149725,-1.954304],[30.149742,-1.954332],[30.149749,-1.954339],[30.149742,-1.954344],[30.149743,-1.954335],[30.14975,-1.95434],[30.149751,-1.954353],[30.149754,-1.954366],[30.149756,-1.954389],[30.149761,-1.954415],[30.149769,-1.954431],[30.149774,-1.954436],[30.149781,-1.954442],[30.14979,-1.954446],[30.149801,-1.954451],[30.149801,-1.95446],[30.149808,-1.954471],[30.149817,-1.954486],[30.149826,-1.954504],[30.14983,-1.954522],[30.149837,-1.95454],[30.149838,-1.954549],[30.149844,-1.954561],[30.149851,-1.954567],[30.149852,-1.954568],[30.149853,-1.954582],[30.149859,-1.954601],[30.149872,-1.95462],[30.149879,-1.954639],[30.149887,-1.954648],[30.14989,-1.954654],[30.149893,-1.954659],[30.149899,-1.954666],[30.149905,-1.954677],[30.149911,-1.954691],[30.149921,-1.954708],[30.149928,-1.954721],[30.149938,-1.954734],[30.149948,-1.954744],[30.149949,-1.954751],[30.149953,-1.954753],[30.149957,-1.954757],[30.149959,-1.954749],[30.149967,-1.954749],[30.149964,-1.954762],[30.149962,-1.95477],[30.14996,-1.954772],[30.149952,-1.954772],[30.149942,-1.954776],[30.149947,-1.954774],[30.149952,-1.954772],[30.149961,-1.954775],[30.149961,-1.954777],[30.149965,-1.954774],[30.14997,-1.954773],[30.149977,-1.954765],[30.149992,-1.954767],[30.150004,-1.954771],[30.149986,-1.954772],[30.149973,-1.954767],[30.149967,-1.954748],[30.149964,-1.954734],[30.149957,-1.954718],[30.149958,-1.954721],[30.149961,-1.954726],[30.149954,-1.954727],[30.149959,-1.954748],[30.149956,-1.954769],[30.149953,-1.954783],[30.149953,-1.9548],[30.14996,-1.954816],[30.14997,-1.954828],[30.149977,-1.954842],[30.149983,-1.954855],[30.14999,-1.954861],[30.149988,-1.954867],[30.149992,-1.954877],[30.149994,-1.954886],[30.149988,-1.954896],[30.149991,-1.954907],[30.149997,-1.954919],[30.150002,-1.954938],[30.150009,-1.954956],[30.150012,-1.954966],[30.150015,-1.95497],[30.150018,-1.954983],[30.150016,-1.954988],[30.150034,-1.954988],[30.150042,-1.954996],[30.150048,-1.955013],[30.150053,-1.955028],[30.15006,-1.955046],[30.150071,-1.955059],[30.150077,-1.955076],[30.150086,-1.955089],[30.150094,-1.955101],[30.150099,-1.955119],[30.150098,-1.955116],[30.150107,-1.955122],[30.150113,-1.955133],[30.150123,-1.955147],[30.150124,-1.955164],[30.15013,-1.955176],[30.150141,-1.955192],[30.150152,-1.955204],[30.150162,-1.955213],[30.150172,-1.955217],[30.150185,-1.955232],[30.150194,-1.955242],[30.1502,-1.955254],[30.1502,-1.955255],[30.150202,-1.955255],[30.150207,-1.955268],[30.150212,-1.955286],[30.15022,-1.955301],[30.150238,-1.955316],[30.150254,-1.955328],[30.150266,-1.955336],[30.150279,-1.955343],[30.150289,-1.955355],[30.150293,-1.955354],[30.150292,-1.955362],[30.150293,-1.955371],[30.15031,-1.955371],[30.150325,-1.955378],[30.15034,-1.955387],[30.150348,-1.955395],[30.150357,-1.955408],[30.150368,-1.955425],[30.150375,-1.955441],[30.150379,-1.955451],[30.150386,-1.95546],[30.1504,-1.955463],[30.150411,-1.955466],[30.150423,-1.955469],[30.150442,-1.955471],[30.150445,-1.955478],[30.150448,-1.955488],[30.150457,-1.955505],[30.150467,-1.955522],[30.150473,-1.95554],[30.150487,-1.955553],[30.150488,-1.95556],[30.150493,-1.955565],[30.150507,-1.95557],[30.150506,-1.955574],[30.150515,-1.955576],[30.15052,-1.955583],[30.150525,-1.955594],[30.150534,-1.955611],[30.150545,-1.955624],[30.150557,-1.955641],[30.150569,-1.95566],[30.150587,-1.955675],[30.150597,-1.955676],[30.150603,-1.955674],[30.150609,-1.955674],[30.150619,-1.955674],[30.150625,-1.955681],[30.150643,-1.955688],[30.150656,-1.955699],[30.150666,-1.955709],[30.150683,-1.955721],[30.150695,-1.955733],[30.150705,-1.955739],[30.150711,-1.955746],[30.150723,-1.955755],[30.15073,-1.955763],[30.150737,-1.955764],[30.150742,-1.955764],[30.15075,-1.955767],[30.150761,-1.955774],[30.150775,-1.955783],[30.150795,-1.955786],[30.150807,-1.955806],[30.150817,-1.955819],[30.150829,-1.955826],[30.15083,-1.955823],[30.150837,-1.955834],[30.150848,-1.95585],[30.15086,-1.955858],[30.150871,-1.955868],[30.150885,-1.955872],[30.150898,-1.955873],[30.150924,-1.955864],[30.150933,-1.955868],[30.150944,-1.955872],[30.150948,-1.955875],[30.150953,-1.955885],[30.150963,-1.955899],[30.150975,-1.955905],[30.150992,-1.95591],[30.151004,-1.955915],[30.151015,-1.955926],[30.151021,-1.955922],[30.151026,-1.955933],[30.151036,-1.955936],[30.151053,-1.955943],[30.151063,-1.955951],[30.15107,-1.955961],[30.151081,-1.955976],[30.151091,-1.955983],[30.151107,-1.955998],[30.151123,-1.95601],[30.151134,-1.956015],[30.151144,-1.956015],[30.151152,-1.956021],[30.151154,-1.956028],[30.151159,-1.956038],[30.151168,-1.95605],[30.151185,-1.956057],[30.151199,-1.956061],[30.151217,-1.956072],[30.151231,-1.956075],[30.151249,-1.956079],[30.151261,-1.95608],[30.15126,-1.956078],[30.151264,-1.956085],[30.151268,-1.956091],[30.151281,-1.956101],[30.151294,-1.956115],[30.151307,-1.95613],[30.15132,-1.956139],[30.151328,-1.956139],[30.151342,-1.956151],[30.151352,-1.956156],[30.151362,-1.956159],[30.151372,-1.956162],[30.151377,-1.956166],[30.15139,-1.956166],[30.151404,-1.95617],[30.151409,-1.956181],[30.151417,-1.956187],[30.151421,-1.95619],[30.151429,-1.956203],[30.15144,-1.956216],[30.151442,-1.956238],[30.151452,-1.956249],[30.151462,-1.956265],[30.151476,-1.956279],[30.151496,-1.956273],[30.151515,-1.956267],[30.151536,-1.956265],[30.151557,-1.956257],[30.151562,-1.956258],[30.151569,-1.956269],[30.151569,-1.956284],[30.151573,-1.956299],[30.151582,-1.956318],[30.151597,-1.956328],[30.151613,-1.956334],[30.151625,-1.956345],[30.151642,-1.956349],[30.151657,-1.956349],[30.151662,-1.956354],[30.151667,-1.956355],[30.151676,-1.956357],[30.151686,-1.956361],[30.151693,-1.956361],[30.151707,-1.95637],[30.151717,-1.956374],[30.15173,-1.95638],[30.15175,-1.956389],[30.151761,-1.956403],[30.151768,-1.956407],[30.151772,-1.956406],[30.151777,-1.956412],[30.151789,-1.956412],[30.151802,-1.956417],[30.151815,-1.956427],[30.151821,-1.956425],[30.151829,-1.956434],[30.151839,-1.956437],[30.151851,-1.956445],[30.151865,-1.956448],[30.151877,-1.956452],[30.15189,-1.956456],[30.151897,-1.956461],[30.151905,-1.956471],[30.151909,-1.956478],[30.151917,-1.956485],[30.151922,-1.956499],[30.151931,-1.956514],[30.151938,-1.956524],[30.151955,-1.956525],[30.15197,-1.956517],[30.15199,-1.956518],[30.152005,-1.956518],[30.152024,-1.956519],[30.15203,-1.956518],[30.152041,-1.956515],[30.152056,-1.956512],[30.152062,-1.956519],[30.152066,-1.956525],[30.152067,-1.956535],[30.152071,-1.956534],[30.152082,-1.956534],[30.152091,-1.956543],[30.152103,-1.956553],[30.15212,-1.956563],[30.152132,-1.956574],[30.152142,-1.956584],[30.152159,-1.956582],[30.15217,-1.956578],[30.152186,-1.956578],[30.152197,-1.95658],[30.152208,-1.956584],[30.152223,-1.956592],[30.152241,-1.956598],[30.152254,-1.956604],[30.152254,-1.95661],[30.152264,-1.956615],[30.152267,-1.956618],[30.152265,-1.956634],[30.152277,-1.956643],[30.152293,-1.956657],[30.152305,-1.956657],[30.152315,-1.956655],[30.15232,-1.95665],[30.15231,-1.956647],[30.15229,-1.956658],[30.152274,-1.956666],[30.152256,-1.956677],[30.152248,-1.95668],[30.152256,-1.956669],[30.152258,-1.956657],[30.152267,-1.956643],[30.152271,-1.956632],[30.152286,-1.956612],[30.152301,-1.956604],[30.152307,-1.956608],[30.152298,-1.956603],[30.15229,-1.956603],[30.152285,-1.956605],[30.152278,-1.956604],[30.152274,-1.9566],[30.152273,-1.956604],[30.152274,-1.956608],[30.15227,-1.956614],[30.152264,-1.95661],[30.152257,-1.956617],[30.152258,-1.956618],[30.152259,-1.956615],[30.152258,-1.956612],[30.152264,-1.95661],[30.152269,-1.956618],[30.152278,-1.956618],[30.152281,-1.956619],[30.152284,-1.956627],[30.15231,-1.956631],[30.152323,-1.956636],[30.15233,-1.956641],[30.152336,-1.956646],[30.152332,-1.956651],[30.152328,-1.956655],[30.152319,-1.956661],[30.152312,-1.956666],[30.152302,-1.956676],[30.152305,-1.956672],[30.152302,-1.956668],[30.152306,-1.956662],[30.152305,-1.956654],[30.152303,-1.956651],[30.152304,-1.956647],[30.152295,-1.956658],[30.152289,-1.95666],[30.152289,-1.956659],[30.152285,-1.956657],[30.15228,-1.956653],[30.152279,-1.956654],[30.152279,-1.956655],[30.152265,-1.956668],[30.15226,-1.95667],[30.152249,-1.956671],[30.152235,-1.956681],[30.152239,-1.95668],[30.15223,-1.956681],[30.152241,-1.956672],[30.15227,-1.956654],[30.152295,-1.956639],[30.152331,-1.956617],[30.152343,-1.956613],[30.15234,-1.956616],[30.152335,-1.956616],[30.15233,-1.956616],[30.152326,-1.956615],[30.152331,-1.956619],[30.152341,-1.956623],[30.152337,-1.956628],[30.152333,-1.956626],[30.152335,-1.956628],[30.152336,-1.956628],[30.152332,-1.956627],[30.152329,-1.956632],[30.15233,-1.95663],[30.152333,-1.956631],[30.152335,-1.95663],[30.152331,-1.956637],[30.152328,-1.956634],[30.152332,-1.956623],[30.152328,-1.95661],[30.152322,-1.956609],[30.152326,-1.956605],[30.15233,-1.956598],[30.152334,-1.956596],[30.152336,-1.9566],[30.152346,-1.956609],[30.152352,-1.956612],[30.15235,-1.956609],[30.152354,-1.956607],[30.152339,-1.956602],[30.152339,-1.9566],[30.152347,-1.956607],[30.152349,-1.956598],[30.152353,-1.9566],[30.152363,-1.956593],[30.152366,-1.956596],[30.152365,-1.956594],[30.152372,-1.956593],[30.152368,-1.956594],[30.152362,-1.9566],[30.152358,-1.956609],[30.152355,-1.956614],[30.15235,-1.956624],[30.152339,-1.956627],[30.152348,-1.956628],[30.152341,-1.956626],[30.152332,-1.956621],[30.152327,-1.956615],[30.152329,-1.956603],[30.15234,-1.956599],[30.152344,-1.956604],[30.152335,-1.956605],[30.152329,-1.956605],[30.152329,-1.956603],[30.152337,-1.956598],[30.152345,-1.956599],[30.152356,-1.956605],[30.152365,-1.956604],[30.152371,-1.956608],[30.152382,-1.956606],[30.152384,-1.956605],[30.152368,-1.956602],[30.152363,-1.956602],[30.152349,-1.956601],[30.15233,-1.956605],[30.152315,-1.956597],[30.152312,-1.956597],[30.152309,-1.956597],[30.152302,-1.956592],[30.152294,-1.95659],[30.15228,-1.956592],[30.152287,-1.956605],[30.152302,-1.956621],[30.152317,-1.95662],[30.152324,-1.956613],[30.152327,-1.956621],[30.152324,-1.956624],[30.152316,-1.956627],[30.152313,-1.956631],[30.152302,-1.95663],[30.152296,-1.956624],[30.152288,-1.956625],[30.152288,-1.956627],[30.152287,-1.95663],[30.152286,-1.95663],[30.152291,-1.956624],[30.152288,-1.956629],[30.152282,-1.956643],[30.152279,-1.956643],[30.152272,-1.956638],[30.152281,-1.956649],[30.152293,-1.956651],[30.152301,-1.956645],[30.152299,-1.956644],[30.152295,-1.956642],[30.152291,-1.956646],[30.152286,-1.95665],[30.152274,-1.956654],[30.152281,-1.956645],[30.152283,-1.956638],[30.152281,-1.956643],[30.152288,-1.956647],[30.1523,-1.95665],[30.152301,-1.956653],[30.152313,-1.956662],[30.152331,-1.956661],[30.152347,-1.956664],[30.152366,-1.956668],[30.152388,-1.956674],[30.15239,-1.956682],[30.152397,-1.956694],[30.152404,-1.956706],[30.152413,-1.956711],[30.152421,-1.956717],[30.152435,-1.956718],[30.152459,-1.956732],[30.152476,-1.956743],[30.152482,-1.956746],[30.152485,-1.956746],[30.152489,-1.956748],[30.152493,-1.956755],[30.152498,-1.956765],[30.152506,-1.956776],[30.152516,-1.956783],[30.152532,-1.956779],[30.152549,-1.956791],[30.152563,-1.956794],[30.152582,-1.9568],[30.152585,-1.956798],[30.152594,-1.9568],[30.152606,-1.956813],[30.152622,-1.956818],[30.152638,-1.956821],[30.152644,-1.95684],[30.152658,-1.956846],[30.152658,-1.956855],[30.152663,-1.95686],[30.152667,-1.956863],[30.152665,-1.956873],[30.152675,-1.956881],[30.152697,-1.956883],[30.152713,-1.956894],[30.152717,-1.956892],[30.152735,-1.956898],[30.152756,-1.956895],[30.152774,-1.956894],[30.152783,-1.956893],[30.152787,-1.956894],[30.152798,-1.956888],[30.152815,-1.956885],[30.152817,-1.956896],[30.152825,-1.9569],[30.152838,-1.956907],[30.152852,-1.956912],[30.152855,-1.956926],[30.152866,-1.956947],[30.152878,-1.956962],[30.152881,-1.956965],[30.152892,-1.956961],[30.152898,-1.95696],[30.152909,-1.956969],[30.152915,-1.956978],[30.152918,-1.956984],[30.152932,-1.957004],[30.152946,-1.957015],[30.152959,-1.95702],[30.152968,-1.957028],[30.152974,-1.957037],[30.152978,-1.957047],[30.152979,-1.957053],[30.152992,-1.957064],[30.153003,-1.95707],[30.153014,-1.957085],[30.153025,-1.957089],[30.153034,-1.957093],[30.153038,-1.957109],[30.153044,-1.957117],[30.153057,-1.957121],[30.153072,-1.957121],[30.153077,-1.95713],[30.153091,-1.957141],[30.153101,-1.957146],[30.153118,-1.957151],[30.153117,-1.957148],[30.153104,-1.957153],[30.153106,-1.957166],[30.153109,-1.957177],[30.153117,-1.957188],[30.153116,-1.957203],[30.153117,-1.957212],[30.153113,-1.957211],[30.15311,-1.957218],[30.153104,-1.957236],[30.153098,-1.957241],[30.153089,-1.957246],[30.153077,-1.957253],[30.153074,-1.957261],[30.153061,-1.957265],[30.153058,-1.957274],[30.153055,-1.957292],[30.153052,-1.957315],[30.15305,-1.957328],[30.15305,-1.957335],[30.153047,-1.957334],[30.153049,-1.95734],[30.153056,-1.957357],[30.153059,-1.957377],[30.153063,-1.957384],[30.153058,-1.957372],[30.153053,-1.95737],[30.153041,-1.95736],[30.153034,-1.95736],[30.153034,-1.957367],[30.153033,-1.957371],[30.153043,-1.957368],[30.15304,-1.957367],[30.15304,-1.957368],[30.153044,-1.957361],[30.153045,-1.957363],[30.153044,-1.957368],[30.15304,-1.957372],[30.153047,-1.957373],[30.153046,-1.95737],[30.153047,-1.957364],[30.153044,-1.957375],[30.153043,-1.957373],[30.15304,-1.957373],[30.153036,-1.957378],[30.153036,-1.957384],[30.153034,-1.957382],[30.153031,-1.957389],[30.153032,-1.957383],[30.153036,-1.957385],[30.153044,-1.957388],[30.153041,-1.957382],[30.153035,-1.957379],[30.153031,-1.957377],[30.153032,-1.957378],[30.15304,-1.957387],[30.153045,-1.957397],[30.153046,-1.9574],[30.153037,-1.957397],[30.153033,-1.957393],[30.153027,-1.957386],[30.153023,-1.957383],[30.153019,-1.957388],[30.153016,-1.957396],[30.15301,-1.957391],[30.15301,-1.957386],[30.153007,-1.957385],[30.153009,-1.95738],[30.153019,-1.957379],[30.153021,-1.957393],[30.15302,-1.957402],[30.15302,-1.957404],[30.153022,-1.957405],[30.153018,-1.957394],[30.153016,-1.957396],[30.153018,-1.957393],[30.15302,-1.957394],[30.153018,-1.957396],[30.153017,-1.957395],[30.153017,-1.957394],[30.153019,-1.957394],[30.153017,-1.957392],[30.153013,-1.957394],[30.153011,-1.95739],[30.153009,-1.957393],[30.153004,-1.957389],[30.153001,-1.957389],[30.153002,-1.95739],[30.153007,-1.957376],[30.153005,-1.957365],[30.15301,-1.957374],[30.153023,-1.957385],[30.153017,-1.957393],[30.153013,-1.9574],[30.15301,-1.957405],[30.153,-1.957411],[30.152984,-1.957423],[30.152981,-1.957431],[30.152979,-1.957439],[30.152981,-1.957451],[30.152986,-1.957462],[30.152976,-1.957466],[30.152964,-1.957477],[30.152952,-1.957489],[30.152952,-1.957492],[30.152946,-1.957482],[30.152939,-1.957481],[30.152923,-1.957482],[30.152903,-1.957483],[30.152884,-1.957478],[30.152867,-1.957464],[30.152865,-1.957463],[30.152864,-1.957459],[30.15286,-1.957459],[30.152843,-1.957464],[30.152831,-1.957462],[30.152822,-1.957463],[30.152812,-1.957457],[30.152812,-1.957447],[30.152801,-1.957442],[30.152795,-1.957436],[30.152787,-1.957428],[30.152773,-1.957424],[30.152759,-1.957422],[30.152743,-1.957415],[30.152744,-1.957414],[30.152732,-1.957416],[30.152727,-1.957416],[30.15271,-1.957389],[30.152704,-1.95738],[30.152691,-1.957373],[30.15267,-1.957375],[30.152656,-1.95738],[30.152646,-1.957376],[30.152641,-1.957381],[30.152634,-1.957364],[30.152619,-1.957361],[30.152601,-1.957357],[30.15259,-1.957356],[30.152572,-1.957359],[30.152555,-1.957364],[30.152543,-1.957364],[30.152538,-1.95736],[30.15254,-1.957351],[30.152522,-1.957347],[30.152509,-1.957339],[30.15249,-1.957328],[30.152473,-1.957316],[30.152463,-1.95731],[30.152454,-1.957312],[30.152446,-1.957323],[30.152431,-1.957328],[30.152414,-1.957333],[30.152407,-1.957335],[30.152398,-1.95734],[30.152383,-1.957346],[30.152363,-1.957351],[30.152343,-1.957353],[30.152324,-1.957356],[30.152321,-1.957353],[30.152302,-1.957344],[30.152297,-1.957339],[30.152294,-1.957328],[30.15228,-1.957327],[30.152262,-1.957324],[30.152248,-1.957322],[30.152232,-1.957319],[30.152218,-1.95732],[30.152211,-1.957319],[30.152187,-1.95732],[30.152176,-1.957347],[30.152195,-1.957366],[30.152182,-1.957388],[30.152168,-1.957405],[30.152162,-1.957417],[30.152154,-1.957422],[30.152143,-1.95742],[30.152133,-1.957413],[30.152123,-1.957411],[30.152106,-1.95741],[30.152092,-1.95741],[30.152076,-1.957415],[30.152063,-1.957421],[30.152048,-1.957425],[30.152031,-1.957444],[30.152013,-1.957457],[30.152006,-1.957457],[30.152001,-1.957459],[30.151993,-1.957466],[30.151988,-1.957468],[30.151986,-1.957444],[30.151986,-1.957429],[30.151974,-1.957416],[30.151966,-1.957397],[30.151968,-1.957385],[30.151974,-1.95737],[30.151967,-1.957378],[30.151961,-1.957382]]}}]}