{
  "type": "FeatureCollection",
  "features": [
    {
      "type": "Feature",
      "properties": {
        "LocalName": "Nyandungu",
        "District": "GASABO",
        "Sector": "NYARUGUNGA",
        "Cell": null,
        "Village": null,
        "AREA": 19.915
      },
      "geometry": {
        "type": "Polygon",
        "coordinates": [
          [
            [
              30.141891528137297,
              -1.9506174422625795
            ],
            [
              30.142029334494243,
              -1.9505097330708663
            ],
            [
              30.142100004420893,
              -1.9504408698135334
            ],
            [
              30.14246748803943,
              -1.9505397503872821
            ],
            [
              30.142741334005162,
              -1.9505927221208288
            ],
            [
              30.143310226914622,
              -1.9505980192940915
            ],
            [
              30.143797849408458,
              -1.9506015507429244
            ],
            [
              30.144239536449962,
              -1.950562704805357
            ],
            [
              30.14435967532525,
              -1.9505485790096553
            ],
            [
              30.14470242446946,
              -1.9503984924230051
            ],
            [
              30.14487733253789,
              -1.9503402235092848
            ],
            [
              30.145160012244464,
              -1.9502413429238092
            ],
            [
              30.14543562495837,
              -1.9501195079087152
            ],
            [
              30.145684736449773,
              -1.949949998307823
            ],
            [
              30.14590646334461,
              -1.949674545169957
            ],
            [
              30.14605133669422,
              -1.949356714570251
            ],
            [
              30.14618560955484,
              -1.9490600726230518
            ],
            [
              30.146404686327422,
              -1.9485462462694152
            ],
            [
              30.14649766144965,
              -1.9482652750054401
            ],
            [
              30.146833177968563,
              -1.9484412407141494
            ],
            [
              30.146970984325517,
              -1.948404160453447
            ],
            [
              30.14703856244286,
              -1.9483904760713162
            ],
            [
              30.147126458164117,
              -1.9483834131643656
            ],
            [
              30.147205520144553,
              -1.94837149450882
            ],
            [
              30.147287894777794,
              -1.9483428014488267
            ],
            [
              30.147346639154318,
              -1.9483180812736698
            ],
            [
              30.14740803365307,
              -1.9481905075068353
            ],
            [
              30.147534797833977,
              -1.9478642894224365
            ],
            [
              30.147590450401204,
              -1.9476276819495735
            ],
            [
              30.147585150156715,
              -1.9474043174017923
            ],
            [
              30.147270668983147,
              -1.9472957251405938
            ],
            [
              30.147194698812008,
              -1.947092666422015
            ],
            [
              30.147084277051633,
              -1.947071477684754
            ],
            [
              30.14700963194161,
              -1.9469712726111792
            ],
            [
              30.146921294533314,
              -1.94689313913558
            ],
            [
              30.146806014215475,
              -1.9467986726687203
            ],
            [
              30.14677995468003,
              -1.946769538149835
            ],
            [
              30.14684974123259,
              -1.9465205704224637
            ],
            [
              30.146886842944078,
              -1.946407563782304
            ],
            [
              30.146963696489298,
              -1.9461985456212674
            ],
            [
              30.147156272039382,
              -1.945753581846858
            ],
            [
              30.147437184997784,
              -1.9452759519504315
            ],
            [
              30.147762266660337,
              -1.9449899036667515
            ],
            [
              30.14838769551111,
              -1.9448698340023605
            ],
            [
              30.14888591849393,
              -1.9448768969240313
            ],
            [
              30.14958555076768,
              -1.9449863722061567
            ],
            [
              30.150218046611123,
              -1.9453642384479464
            ],
            [
              30.150475991843358,
              -1.9461482223431446
            ],
            [
              30.150362919960727,
              -1.9468333250882528
            ],
            [
              30.149995436342206,
              -1.94750783318898
            ],
            [
              30.1494230099364,
              -1.9483377249843148
            ],
            [
              30.149090861281177,
              -1.9489204147239363
            ],
            [
              30.148794047589288,
              -1.9494995728107722
            ],
            [
              30.147855904313104,
              -1.950896261157663
            ],
            [
              30.147836470083266,
              -1.9509086212263547
            ],
            [
              30.14781388883316,
              -1.9497083698465638
            ],
            [
              30.147312132354006,
              -1.9495035456933005
            ],
            [
              30.14697291670613,
              -1.9496094892239624
            ],
            [
              30.146235796244827,
              -1.9505846108242364
            ],
            [
              30.145779975217994,
              -1.9511655340621432
            ],
            [
              30.145218149301193,
              -1.9514039067612814
            ],
            [
              30.145039707736426,
              -1.9515275074067917
            ],
            [
              30.144988472039618,
              -1.951297080481772
            ],
            [
              30.144944303335464,
              -1.9511249224137361
            ],
            [
              30.144727876685124,
              -1.9509183327088329
            ],
            [
              30.14431269086611,
              -1.9509545300521236
            ],
            [
              30.143966408225552,
              -1.9512291001185493
            ],
            [
              30.143436383775732,
              -1.951504553001884
            ],
            [
              30.142775619961647,
              -1.9514833643201517
            ],
            [
              30.142316265438474,
              -1.9516140278532423
            ],
            [
              30.14211485614755,
              -1.9516493423199026
            ],
            [
              30.141853377418975,
              -1.9512502888034853
            ],
            [
              30.141891528137297,
              -1.9506174422625795
            ]
          ],
          [
            [
              30.147575377830773,
              -1.948708969000819
            ],
            [
              30.147774136999455,
              -1.9486109711827717
            ],
            [
              30.147976429664464,
              -1.9482542943914598
            ],
            [
              30.147986146779388,
              -1.9482578258452095
            ],
            [
              30.148294444334358,
              -1.9477033875158662
            ],
            [
              30.148340379786678,
              -1.947534760535564
            ],
            [
              30.149038639263136,
              -1.9473197565236893
            ],
            [
              30.14939459378421,
              -1.9468006561804572
            ],
            [
              30.14954290816799,
              -1.9464002073442495
            ],
            [
              30.149261110838808,
              -1.9459849270696639
            ],
            [
              30.14896448207125,
              -1.9459700956312858
            ],
            [
              30.148164588344123,
              -1.9462718233744418
            ],
            [
              30.14830990338078,
              -1.946696039750201
            ],
            [
              30.147947278319737,
              -1.9471233459473678
            ],
            [
              30.147837739933443,
              -1.947178083516397
            ],
            [
              30.147767953380885,
              -1.947283144329391
            ],
            [
              30.147877491767176,
              -1.947334350437553
            ],
            [
              30.14792961083807,
              -1.9475471206289339
            ],
            [
              30.147781203992125,
              -1.9478393485243437
            ],
            [
              30.147741452158385,
              -1.9480132726555563
            ],
            [
              30.14766283186499,
              -1.948177485270575
            ],
            [
              30.147600112305106,
              -1.948400849715844
            ],
            [
              30.147513541644965,
              -1.9486012596869786
            ],
            [
              30.14750912477455,
              -1.948637457080103
            ],
            [
              30.147575377830773,
              -1.948708969000819
            ]
          ]
        ]
      }
    }
  ]
}