{"type":"FeatureCollection","features":[{"type":"Feature","properties":{"FID_":0,"Entity":"LWPolyline","Layer":"0","Color":7,"Linetype":"Continuous","Elevation":0,"LineWt":25,"RefName":null},"geometry":{"type":"Polygon","coordinates":[[[30.13303736762831,-1.9568260255102783],[30.132970960530933,-1.9567637462476533],[30.132573588693457,-1.9562647235129265],[30.132680765928068,-1.9561125630790972],[30.1332336725634,-1.9558297511101743],[30.132919278079793,-1.955291981813229],[30.133636306361634,-1.9548370885453927],[30.134407959738805,-1.954564933431815],[30.134486459163263,-1.9544213027933939],[30.13455773654298,-1.954282179017339],[30.134519617946378,-1.95424989489498],[30.134674188880858,-1.9540868312657331],[30.134851055891623,-1.9539300340150283],[30.134764334478128,-1.9538691456798263],[30.13508369131745,-1.9536033259141143],[30.135177674868206,-1.9535990665335123],[30.135370085988193,-1.9534287744316527],[30.135740744930594,-1.9537228170441303],[30.136145193872938,-1.9540666929471149],[30.136763400149103,-1.9534536049347706],[30.137078591528795,-1.9532198554991804],[30.137272146068746,-1.9531618549165928],[30.137671911507645,-1.9527640598420235],[30.13779766028439,-1.9526754290697503],[30.137957072225635,-1.9528142527409833],[30.138202388419977,-1.952604897117562],[30.13835896860806,-1.952468966475439],[30.13865450864088,-1.9520890227807317],[30.138720698255277,-1.951948910825114],[30.13877022563629,-1.9517731299272734],[30.138777340720114,-1.9516828429872912],[30.138767700767712,-1.9515654330824408],[30.13855889220047,-1.9515492848932074],[30.138555962623215,-1.9515271213500558],[30.138160108571864,-1.9514283715421892],[30.13816830535386,-1.951398770295133],[30.13812471995328,-1.950743026877315],[30.137982625902467,-1.9507378437418348],[30.137919439471972,-1.9507397000058226],[30.137804730594812,-1.950756218828372],[30.137822009800352,-1.9506699714508455],[30.13782988489209,-1.9506587758188836],[30.137838019836224,-1.9505312046766339],[30.137840203440096,-1.950375756493031],[30.137841455110184,-1.9500486556102894],[30.137864639117627,-1.949704200239833],[30.13785916680637,-1.9492860797342921],[30.13786535829801,-1.9491273400782492],[30.13790317902519,-1.948861373326743],[30.13794105891855,-1.9487480180597192],[30.138046110390906,-1.9485069725633515],[30.138096665075974,-1.9482702841551414],[30.13815271004944,-1.9479214509446696],[30.139027842724975,-1.9479923073722694],[30.139087060451242,-1.9487582101974958],[30.13912458163924,-1.9493752544528062],[30.139112106192197,-1.949554785955354],[30.139072860132302,-1.949663703714347],[30.13906215998532,-1.9497319266869386],[30.13905503332129,-1.9498671735992807],[30.139064601319,-1.9504991193521284],[30.139147896043212,-1.9508067075551903],[30.139377247096007,-1.9512228694522074],[30.139853231174055,-1.951723228357371],[30.139946624302716,-1.9513792986234915],[30.140124385219945,-1.9514875214259493],[30.140418966489534,-1.951122608522911],[30.14043567990258,-1.9510813031191054],[30.140460897248072,-1.9510543928756436],[30.140499374740074,-1.9510575226827818],[30.140545654653934,-1.951073311553883],[30.14058797817242,-1.9510245934506851],[30.140870435703118,-1.9506622508974119],[30.141035321449557,-1.9507756099431641],[30.14112504253353,-1.9508288305603763],[30.141728481527895,-1.9511510473536626],[30.14178826414668,-1.951150836915709],[30.14186898809564,-1.9511410681626504],[30.142075786110627,-1.9511046483735428],[30.142174101568155,-1.9510278186009662],[30.14232286748877,-1.9510750240882924],[30.142547102694298,-1.9511255334947035],[30.142708750487046,-1.9511521392284024],[30.142728588929767,-1.9511582760473327],[30.142778251385362,-1.9511820070857389],[30.142806180559226,-1.9511860171256639],[30.142856867989565,-1.95118720792946],[30.143927288834607,-1.9511888287881238],[30.14437555004454,-1.951134065573404],[30.145137906274307,-1.950848644321541],[30.145492123241,-1.9506827127130892],[30.145703805971824,-1.9505265056002337],[30.145950562034347,-1.9502140517252071],[30.146079376918923,-1.949955795801723],[30.14623330286719,-1.9496128246141615],[30.14650507238041,-1.9490566526699147],[30.146624397312408,-1.9484734900247938],[30.146626165469286,-1.948340739092751],[30.146706543457984,-1.9481190487411486],[30.146821216270723,-1.9474780587347533],[30.146893842211288,-1.9471601643579466],[30.147010624684246,-1.946838326286495],[30.147302299444963,-1.9461002283008155],[30.147522150423104,-1.945846861413707],[30.14771068177269,-1.9456786640991042],[30.147874203529042,-1.945597900001188],[30.14788042073906,-1.9455799317561853],[30.147906157120264,-1.9455576924263656],[30.14800589923946,-1.9455352565770396],[30.14868665892695,-1.945451980423445],[30.14912499170316,-1.9454829715243407],[30.149614453779655,-1.945572337579953],[30.149863194160982,-1.9456561266208512],[30.15022586330372,-1.945953264109434],[30.150317539370945,-1.9460489795578473],[30.15037397407616,-1.9461295558998575],[30.15052918046086,-1.9468138424359103],[30.150494188315967,-1.9471554326204166],[30.150405886287654,-1.9473985128742655],[30.150239082527506,-1.9477438902686264],[30.150068602913386,-1.948039476837933],[30.14984300200767,-1.9483134672843136],[30.149761058365517,-1.9482349668242667],[30.149714168513047,-1.9482055758309267],[30.14962089791121,-1.948281066577782],[30.14952898369419,-1.948381686639821],[30.14940366905911,-1.9484815723323299],[30.149331482998427,-1.9485106346864427],[30.149063078174013,-1.9483690096463586],[30.148976875338906,-1.948354538212356],[30.14891003469404,-1.9484523794341961],[30.14888902498789,-1.9485118158331276],[30.149051922089736,-1.9486876983860155],[30.149362580878503,-1.948922929898545],[30.1494439613696,-1.9489268853011725],[30.148828543499327,-1.9501160378471296],[30.14863346217298,-1.9506332651558849],[30.148605956953425,-1.9508288929168256],[30.14860361905427,-1.9509620214417525],[30.148628077844805,-1.9511764373828924],[30.14868657877794,-1.9514592397223767],[30.148766664959993,-1.9516826246069754],[30.148821211492386,-1.9518653266011559],[30.14891248892538,-1.9520670343457096],[30.149248189428256,-1.9525415931002446],[30.149294791627767,-1.9526012062182017],[30.14937053185688,-1.9527192470205856],[30.14938936092588,-1.9527296875896036],[30.14941408031866,-1.9527370416396046],[30.149528907587147,-1.9527648333451257],[30.14966243130516,-1.9530216454209726],[30.14968259721159,-1.953069749265079],[30.149710626919834,-1.9531424543930367],[30.149702950157778,-1.953168728988036],[30.149892095454835,-1.9534692429668112],[30.1500974729167,-1.9538395490008986],[30.15028141038326,-1.9542427144673675],[30.15025381706791,-1.9542850161207945],[30.150322795517685,-1.9543523950946524],[30.150362156373028,-1.9543788988739053],[30.15048415888517,-1.9545130014209182],[30.15049534678473,-1.9545350158122374],[30.15046017811434,-1.9546618350667577],[30.150443018585097,-1.954719516887981],[30.15045256528696,-1.9547698735177117],[30.150473216068498,-1.9547996269158228],[30.150658327824804,-1.9549477115961025],[30.151462556829262,-1.9555722468152492],[30.152834349102,-1.9565625603782375],[30.152937237503135,-1.9566433530802994],[30.15299107896334,-1.9566689670288602],[30.153685852320564,-1.9570820161648919],[30.15386431079591,-1.9571931053490819],[30.15387778333982,-1.9571727398196779],[30.15388947976422,-1.9571796164025792],[30.154398507853006,-1.9575693741052729],[30.15466745288029,-1.9577762508192522],[30.154276166235952,-1.9584232885402744],[30.15488474808601,-1.9586421461052281],[30.15546645987427,-1.9588252127526298],[30.156615606059216,-1.9591590313111904],[30.15730081093988,-1.9593528593646987],[30.157982447948303,-1.959553868669436],[30.159049512595075,-1.9598589684209564],[30.15949203327618,-1.9599020133371408],[30.15997735805342,-1.959733208410657],[30.160220011700083,-1.9595572455077759],[30.160385799027353,-1.959707599183783],[30.161465777421522,-1.9609665281266213],[30.16163161498846,-1.9610984939703053],[30.162027778566745,-1.9615113746586599],[30.163122727254144,-1.963186575620955],[30.163797313043,-1.9639985729253784],[30.163772550159408,-1.9642078765921802],[30.163739540373214,-1.9643525124265837],[30.16367017696383,-1.9645153972702167],[30.162890359306584,-1.9657641839439375],[30.16217414096136,-1.9669490707377932],[30.16060291197733,-1.9657969790665488],[30.15908254877769,-1.9647486692332543],[30.15808028592984,-1.9641640949533008],[30.157654992160754,-1.9639008244178415],[30.15625222765324,-1.9631409457206188],[30.155133966752807,-1.9623662778414497],[30.15464620841321,-1.9619569943695518],[30.154144174026747,-1.9615309559021281],[30.153380534634273,-1.960878912830644],[30.152788085955656,-1.9603619202382734],[30.151907572347675,-1.9595429880812527],[30.151591142250073,-1.9592931963183458],[30.15113734824811,-1.959001849978516],[30.15084113298562,-1.9588379058572785],[30.15026060441209,-1.9585794347380021],[30.149810936981353,-1.9584262760667888],[30.149251826696684,-1.9582348272815093],[30.147774344052664,-1.9576772181950375],[30.1455272001885,-1.9569217129869296],[30.144474403788585,-1.9564981129849142],[30.14283276312043,-1.955920166710598],[30.140551383823656,-1.9550214818061677],[30.13974718933593,-1.954763175336559],[30.139340354889185,-1.9546961846749635],[30.138988244671804,-1.9546842453348143],[30.138745573811008,-1.9546722968287098],[30.138338748421546,-1.9547154178763355],[30.137772530579326,-1.9548614827340347],[30.136923214568327,-1.9552158258894539],[30.135928779490623,-1.9556635362626398],[30.134941481400677,-1.9561136392391905],[30.13428130165213,-1.956437445651738],[30.133728181700196,-1.9567570541956048],[30.13364967841855,-1.9568540069033111],[30.133589004038917,-1.956767837173639],[30.13303736762831,-1.9568260255102783]]]}}]}